Title,Address,City,State,Zip,Phone,Latitude,Longitude,Hours (M-F),Hours (Sat),Hours (Sun)
Yorba Linda Warehouse,22633 SAVI RANCH PKWY,YORBA LINDA,CA,92887-4664,(714) 282-6650,33.875,-117.743,M-F 10:00am - 8:30pm,Sat. 9:30am - 6:00pm,Sun. 10:00am - 6:00pm
Yonkers Warehouse,20 STEW LEONARD DR,YONKERS,NY,10710-7204,(914) 595-1003,40.973,-73.863,M-F 10:00am - 8:30pm,Sat. 9:30am - 6:00pm,Sun. 10:00am - 6:00pm
Wyoming Warehouse,4901 WILSON AVE SW,WYOMING,MI,49418-8788,(616) 406-2651,42.876,-85.763,M-F 10:00am - 8:30pm,Sat. 9:30am - 6:00pm,Sun. 10:00am - 6:00pm
Woodstock Warehouse,113 LINCOLN ST,WOODSTOCK,GA,30188-7800,(770) 694-7193,34.12,-84.516,M-F 10:00am - 8:30pm,Sat. 9:30am - 6:00pm,Sun. 10:00am - 6:00pm
Woodmore Towne Centre Warehouse,2400 FIVE LEES LN,GLENARDEN,MD,20706-1617,(301) 341-6742,38.922,-76.851,M-F 10:00am - 8:30pm,Sat. 9:30am - 6:00pm,Sun. 10:00am - 6:00pm
Woodlands Warehouse,8185 HIGHWAY 242,CONROE,TX,77385-4365,(936) 703-2295,30.208,-95.453,M-F 10:00am - 8:30pm,Sat. 9:30am - 6:00pm,Sun. 10:00am - 6:00pm
Woodland Warehouse,2299 BRONZE STAR DR,WOODLAND,CA,95776-5409,(530) 406-2120,38.673,-121.724,Mon - Fri 09:00 AM - 08:30 PM,Sat. 09:30 AM - 07:00 PM,Sun. 10:00 AM - 06:00 PM
Woodland Hills Warehouse,21800 VICTORY BLVD,WOODLAND HILLS,CA,91367-2227,(818) 884-9099,34.187,-118.603,M-F 10:00am - 8:30pm,Sat. 9:30am - 6:00pm,Sun. 10:00am - 6:00pm
Woodinville Warehouse,24008 SNOHOMISH WOODINVILLE RD,WOODINVILLE,WA,98072-9743,(425) 806-7700,47.779,-122.149,M-F 10:00am - 8:30pm,Sat. 9:30am - 6:00pm,Sun. 10:00am - 6:00pm
Woodbury Warehouse,7070 TAMARACK ROAD,WOODBURY,MN,55125-1205,(612) 540-5458,44.939,-92.964,M-F 10:00am - 8:30pm,Sat. 9:30am - 6:00pm,Sun. 10:00am - 6:00pm
Winston Salem Warehouse,1085 HANES MALL BLVD,WINSTON SALEM,NC,27103-1310,(336) 970-2300,36.065,-80.318,M-F 10:00am - 8:30pm,Sat. 9:30am - 6:00pm,Sun. 10:00am - 6:00pm
Winchester Warehouse,251 FRONT ROYAL PIKE,WINCHESTER,VA,22602-7319,(540) 722-9626,39.158,-78.159,M-F 10:00am - 8:30pm,Sat. 9:30am - 6:00pm,Sun. 10:00am - 6:00pm
Wilsonville Warehouse,25900 SW HEATHER PL,WILSONVILLE,OR,97070-5785,(503) 825-4003,45.333,-122.766,M-F 10:00am - 8:30pm,Sat. 9:30am - 7:00pm,Sun. 10:00am - 6:00pm
Wilmington Warehouse,5351 GINGERWOOD DR,WILMINGTON,NC,28405-3091,(910) 798-3250,34.247,-77.873,M-F 10:00am - 8:30pm,Sat. 9:30am - 6:00pm,Sun. 10:00am - 6:00pm
Willowbrook Warehouse,12405 N GESSNER RD,HOUSTON,TX,77064-1170,(832) 912-2353,29.954,-95.547,M-F 10:00am - 8:30pm,Sat. 9:30am - 6:00pm,Sun. 10:00am - 6:00pm
Wichita Warehouse,9700 E KELLOGG,WICHITA,KS,67207-1821,(316) 226-7142,37.68,-97.225,M-F 10:00am - 8:30pm,Sat. 9:30am - 6:00pm,Sun. 10:00am - 6:00pm
White Marsh Warehouse,9919 PULASKI HWY,BALTIMORE,MD,21220-1423,(410) 574-7563,39.359,-76.447,M-F 10:00am - 8:30pm,Sat. 9:30am - 6:00pm,Sun. 10:00am - 6:00pm
Wheaton Warehouse,11160 VEIRS MILL RD,WHEATON,MD,20902-2538,(301) 692-1330,39.036,-77.056,M-F 10:00am - 8:30pm,Sat. 9:30am - 6:00pm,Sun. 10:00am - 6:00pm
Wharton Warehouse,315 STATE ROUTE 15 N,WHARTON,NJ,07885-1222,(973) 659-2000,40.907,-74.571,M-F 10:00am - 8:30pm,Sat. 9:30am - 6:00pm,Sun. 10:00am - 6:00pm
Westminster CO Warehouse,6400 W 92ND AVE,WESTMINSTER,CO,80031-2952,(303) 650-1476,39.864,-105.067,M-F 10:00am - 8:30pm,Sat. 9:30am - 6:00pm,Sun. 10:00am - 6:00pm
Westminster Business Center Warehouse,13225 BEACH BLVD,WESTMINSTER,CA,92683-9210,(657) 400-7006,33.768,-117.991,Mon - Fri 07:00 AM - 06:00 PM,Sat. 07:00 AM - 04:00 PM,Sun. Closed
Westlake Village Warehouse,5700 LINDERO CANYON RD,WESTLAKE VILLAGE,CA,91362-4063,(818) 597-3901,34.153,-118.797,M-F 10:00am - 8:30pm,Sat. 9:30am - 6:00pm,Sun. 10:00am - 6:00pm
Westbury Warehouse,1250 OLD COUNTRY RD,WESTBURY,NY,11590-5641,(516) 683-8300,40.744,-73.598,M-F 9:00am - 8:30pm,Sat. 9:00am - 7:00pm,Sun. 10:00am - 6:00pm
West Valley Warehouse,3747 S 2700 W,SALT LAKE CITY,UT,84119-3721,(801) 996-9008,40.69,-111.954,M-F 10:00am - 8:30pm,Sat. 9:30am - 6:00pm,Sun. 10:00am - 6:00pm
West Springfield Warehouse,119 DAGGETT DR,WEST SPRINGFIELD,MA,01089-4672,(413) 747-5518,42.132,-72.622,M-F 10:00am - 8:30pm,Sat. 9:30am - 6:00pm,Sun. 10:00am - 6:00pm
West Fargo ND Warehouse,750 23RD AVE EAST,WEST FARGO,ND,58078-7804,(701) 281-2220,46.844,-96.887,M-F 10:00am - 8:30pm,Sat. 9:30am - 6:00pm,Sun. 10:00am - 6:00pm
West Des Moines Warehouse,7205 MILLS CIVIC PKWY,WEST DES MOINES,IA,50266-8140,(515) 222-2920,41.561,-93.805,M-F 10:00am - 8:30pm,Sat. 9:30am - 6:00pm,Sun. 10:00am - 6:00pm
Wesley Chapel Warehouse,2225 GRAND CYPRESS DR,LUTZ,FL,33559-6797,(813) 279-7031,28.191,-82.393,M-F 10:00am - 8:30pm,Sat. 9:30am - 6:00pm,Sun. 10:00am - 6:00pm
Wenatchee Warehouse,375 HIGHLINE DR,EAST WENATCHEE,WA,98802-5344,(509) 886-0593,47.402,-120.282,M-F 10:00am - 8:30pm,Sat. 9:30am - 6:00pm,Sun. 10:00am - 6:00pm
Webster Warehouse,1310 JASMINE AVE,WEBSTER,TX,77598,(281) 707-7750,29.534,-95.137,M-F 10:00am - 8:30pm,Sat. 9:30am - 6:00pm,Sun. 10:00am - 6:00pm
Wayne Warehouse,149 STATE ROUTE 23,WAYNE,NJ,07470-6933,(973) 339-4006,40.891,-74.25,M-F 10:00am - 8:30pm,Sat. 9:30am - 6:00pm,Sun. 10:00am - 6:00pm
Waterbury Warehouse,3600 E MAIN ST,WATERBURY,CT,06705-3851,(203) 596-9967,41.543,-72.971,M-F 10:00am - 8:30pm,Sat. 9:30am - 6:00pm,Sun. 10:00am - 6:00pm
Washington DC Warehouse,2441 MARKET ST NE,WASHINGTON,DC,20018-3840,(202) 269-8540,38.92,-76.95,M-F 10:00am - 8:30pm,Sat. 9:30am - 6:00pm,Sun. 10:00am - 6:00pm
Warrenton Warehouse,1804 SE ENSIGN LN,WARRENTON,OR,97146-7339,(503) 338-4103,46.146,-123.915,M-F 10:00am - 8:30pm,Sat. 9:30am - 7:00pm,Sun. 10:00am - 6:00pm
Waltham Warehouse,71 2ND AVE,WALTHAM,MA,02451-1107,(781) 622-3883,42.396,-71.264,M-F 10:00am - 8:30pm,Sat. 9:30am - 6:00pm,Sun. 10:00am - 6:00pm
Waipio Warehouse,94-1231 KA UKA BLVD,WAIPAHU,HI,96797-4495,(808) 678-6103,21.42,-158.006,M-F 10:00am - 8:30pm,Sat. 9:30am - 6:00pm,Sun. 10:00am - 6:00pm
W Tampa Warehouse,8712 W LINEBAUGH AVE,TAMPA,FL,33625-3713,(813) 616-7001,28.044,-82.581,M-F 10:00am - 8:30pm,Sat. 9:30am - 6:00pm,Sun. 10:00am - 6:00pm
W San Antonio Warehouse,191 W LOOP 1604 S,SAN ANTONIO,TX,78245-4191,(210) 868-6725,29.432,-98.715,Mon - Fri 10:00 AM - 08:30 PM,Sat. 09:30 AM - 06:00 PM,Sun. 10:00 AM - 06:00 PM
W Plano Warehouse,1701 DALLAS PKWY,PLANO,TX,75093-4520,(972) 246-2203,33.023,-96.83,M-F 10:00am - 8:30pm,Sat. 9:30am - 6:00pm,Sun. 10:00am - 6:00pm
W Nashville Warehouse,6670 CHARLOTTE PIKE,NASHVILLE,TN,37209-4202,(615) 354-5100,36.139,-86.884,M-F 10:00am - 8:30pm,Sat. 9:30am - 6:00pm,Sun. 10:00am - 6:00pm
W Katy Warehouse,23645 KATY FREEWAY,KATY,TX,77494-7221,(281) 347-9900,29.784,-95.787,M-F 10:00am - 8:30pm,Sat. 9:30am - 6:00pm,Sun. 10:00am - 6:00pm
W Jacksonville Warehouse,8000 PARRAMORE RD,JACKSONVILLE,FL,32244-5704,(904) 479-7521,30.202,-81.756,M-F 10:00am - 8:30pm,Sat. 9:30am - 6:00pm,Sun. 10:00am - 6:00pm
W Henrico Warehouse,9650 W BROAD ST,GLEN ALLEN,VA,23060-4115,(804) 727-3050,37.641,-77.56,M-F 10:00am - 8:30pm,Sat. 9:30am - 6:00pm,Sun. 10:00am - 6:00pm
W Colorado Springs Warehouse,5050 N NEVADA AVE,COLORADO SPRINGS,CO,80918-8602,(719) 264-5010,38.904,-104.817,M-F 10:00am - 8:30pm,Sat. 9:30am - 6:00pm,Sun. 10:00am - 6:00pm
W Bayamon Warehouse,"PR-2, KM 15.5",BAYAMON,PR,961,(787) 474-6930,18.404,-66.195,Mon - Fri 10:00 AM - 08:30 PM,Sat. 09:30 AM - 06:00 PM,Sun. 10:00 AM - 06:00 PM
Vista Warehouse,1755 HACIENDA DR,VISTA,CA,92081-4546,(760) 631-7255,33.187,-117.276,M-F 10:00am - 8:30pm,Sat. 9:30am - 6:00pm,Sun. 10:00am - 6:00pm
Visalia Warehouse,1405 W CAMERON AVE,VISALIA,CA,93277-9527,(559) 735-2400,36.294,-119.306,M-F 9:00am - 8:30pm,Sat. 9:00am - 7:00pm,Sun. 9:00am - 7:00pm
Victorville Warehouse,14555 VALLEY CENTER DR,VICTORVILLE,CA,92395-4216,(760) 524-9904,34.515,-117.32,M-F 10:00am - 8:30pm,Sat. 9:30am - 6:00pm,Sun. 10:00am - 6:00pm
Vancouver WA Warehouse,6720 NE 84TH ST,VANCOUVER,WA,98665-2016,(360) 828-2262,45.684,-122.604,M-F 10:00am - 8:30pm,Sat. 9:30am - 7:00pm,Sun. 10:00am - 6:00pm
Van Nuys Warehouse,6100 SEPULVEDA BLVD,VAN NUYS,CA,91411-2503,(818) 989-5132,34.182,-118.464,M-F 10:00am - 8:30pm,Sat. 9:30am - 6:00pm,Sun. 10:00am - 6:00pm
Vallejo Warehouse,198 PLAZA DR,VALLEJO,CA,94591-3702,(707) 553-6400,38.132,-122.215,M-F 10:00am - 8:30pm,Sat. 9:30am - 7:00pm,Sun. 10:00am - 7:00pm
Vacaville Warehouse,1051 HUME WAY,VACAVILLE,CA,95687-5558,(707) 453-7343,38.35,-121.981,M-F 9:00am - 8:30pm,Sat. 9:30am - 6:00pm,Sun. 10:00am - 6:00pm
Union Warehouse,1055 HUDSON ST,UNION,NJ,07083-6809,(908) 810-1458,40.694,-74.29,M-F 10:00am - 8:30pm,Sat. 9:30am - 6:00pm,Sun. 10:00am - 6:00pm
Union Gap Warehouse,2310 LONGFIBRE RD,UNION GAP,WA,98903-1513,(509) 454-5242,46.565,-120.496,M-F 10:00am - 8:30pm,Sat. 9:30am - 6:00pm,Sun. 10:00am - 6:00pm
Ukiah Warehouse,1275 AIRPORT PARK BLVD,UKIAH,CA,95482-7400,(707) 313-8004,39.127,-123.197,Mon - Fri 10:00 AM - 08:30 PM,Sat. 09:30 AM - 06:00 PM,Sun. 10:00 AM - 06:00 PM
Twin Falls Warehouse,731 POLE LINE RD,TWIN FALLS,ID,83301-3036,(208) 736-1550,42.593,-114.464,M-F 10:00am - 8:30pm,Sat. 9:30am - 6:00pm,Sun. 10:00am - 6:00pm
Tustin Warehouse,2700 PARK AVE,TUSTIN,CA,92782-2708,(714) 338-1933,33.699,-117.824,M-F 10:00am - 8:30pm,Sat. 9:30am - 6:00pm,Sun. 10:00am - 6:00pm
Tustin Ranch Warehouse,2655 EL CAMINO REAL,TUSTIN,CA,92782-8918,(714) 838-7895,33.727,-117.796,M-F 10:00am - 8:30pm,Sat. 9:30am - 6:00pm,Sun. 10:00am - 6:00pm
Turlock Warehouse,2955 N TEGNER RD,TURLOCK,CA,95380-9401,(209) 656-5301,37.52,-120.888,M-F 9:00am - 8:30pm,Sat. 9:00am - 7:00pm,Sun. 10:00am - 7:00pm
Tumwater Warehouse,5500 LITTLEROCK RD SW,TUMWATER,WA,98512-7363,(360) 357-6580,46.997,-122.918,M-F 10:00am - 8:30pm,Sat. 9:30am - 6:00pm,Sun. 10:00am - 6:00pm
Tulsa Warehouse,10220 S MEMORIAL DR,TULSA,OK,74133-7179,(918) 710-2220,36.016,-95.887,M-F 10:00am - 8:30pm,Sat. 9:30am - 6:00pm,Sun. 10:00am - 6:00pm
Tukwila Warehouse,400 COSTCO DR STE 150,TUKWILA,WA,98188-4808,(206) 575-9191,47.445,-122.251,M-F 10:00am - 8:30pm,Sat. 9:30am - 6:00pm,Sun. 10:00am - 6:00pm
Tucson Warehouse,6255 EAST GRANT ROAD,TUCSON,AZ,85712-5834,(520) 886-6377,32.252,-110.859,M-F 10:00am - 8:30pm,Sat. 9:30am - 6:00pm,Sun. 10:00am - 6:00pm
Traverse City Warehouse,125 E SOUTH AIRPORT RD,TRAVERSE CITY,MI,49686-4864,(231) 252-7000,44.736,-85.57,Mon - Fri 10:00 AM - 08:30 PM,Sat. 09:30 AM - 06:00 PM,Sun. 10:00 AM - 06:00 PM
Tracy Warehouse,3250 W GRANT LINE RD,TRACY,CA,95304-8427,(209) 830-5340,37.754,-121.476,M-F 10:00am - 8:30pm,Sat. 9:00am - 7:00pm,Sun. 9:00am - 7:00pm
Town Center Warehouse,645 BARRETT PARKWAY NW,KENNESAW,GA,30144-4922,(770) 794-1767,34.005,-84.569,M-F 10:00am - 8:30pm,Sat. 9:30am - 6:00pm,Sun. 10:00am - 6:00pm
Torrance Warehouse,2640 LOMITA BLVD,TORRANCE,CA,90505-5214,(310) 891-1020,33.808,-118.332,M-F 10:00am - 8:30pm,Sat. 9:30am - 6:00pm,Sun. 10:00am - 6:00pm
Toledo Warehouse,3405 W CENTRAL AVE,TOLEDO,OH,43606-1402,(419) 381-5000,41.677,-83.628,M-F 10:00am - 8:30pm,Sat. 9:30am - 6:00pm,Sun. 10:00am - 6:00pm
Timnath Warehouse,4705 WEITZEL ST,TIMNATH,CO,80547-4703,(970) 416-6115,40.52,-104.989,M-F 10:00am - 8:30pm,Sat. 9:30am - 6:00pm,Sun. 10:00am - 6:00pm
Tigard Warehouse,7850 SW DARTMOUTH ST,TIGARD,OR,97223-8401,(503) 639-0811,45.436,-122.756,M-F 10:00am - 8:30pm,Sat. 9:30am - 7:00pm,Sun. 10:00am - 6:00pm
Thornton Warehouse,16375 N. WASHINGTON ST,THORNTON,CO,80023-8907,(303) 474-3247,39.993,-104.978,M-F 10:00am - 8:30pm,Sat. 9:30am - 6:00pm,Sun. 10:00am - 6:00pm
Thomas Road Warehouse,4502 E OAK ST,PHOENIX,AZ,85008-2411,(602) 808-0101,33.473,-111.985,M-F 10:00am - 8:30pm,Sat. 9:30am - 6:00pm,Sun. 10:00am - 6:00pm
Teterboro Warehouse,2 TETERBORO LANDING DR,TETERBORO,NJ,07608-1120,(201) 596-7001,40.861,-74.064,M-F 10:00am - 8:30pm,Sat. 9:00am - 7:00pm,Sun. 10:00am - 6:00pm
Tempe Warehouse,1445 W ELLIOT RD,TEMPE,AZ,85284-1103,(480) 496-6651,33.349,-111.959,M-F 10:00am - 8:30pm,Sat. 9:30am - 6:00pm,Sun. 10:00am - 6:00pm
Temecula Warehouse,26610 YNEZ RD,TEMECULA,CA,92591-4697,(951) 719-2000,33.52,-117.156,M-F 10:00am - 8:30pm,Sat. 9:30am - 6:00pm,Sun. 10:00am - 6:00pm
Tallahassee Warehouse,4067 LAGNIAPPE WAY,TALLAHASSEE,FL,32317-1201,(850) 219-2500,30.461,-84.213,M-F 10:00am - 8:30pm,Sat. 9:30am - 6:00pm,Sun. 10:00am - 6:00pm
Tacoma Warehouse,2219 S 37TH ST,TACOMA,WA,98409-7473,(253) 475-5595,47.225,-122.467,M-F 10:00am - 8:30pm,Sat. 9:30am - 6:00pm,Sun. 10:00am - 6:00pm
Syracuse Warehouse,120 TOWNSHIP BLVD,CAMILLUS,NY,13031-1659,(315) 883-2361,43.057,-76.27,M-F 10:00am - 8:30pm,Sat. 9:30am - 6:00pm,Sun. 10:00am - 6:00pm
Surprise Warehouse,16385 W. WADDELL RD.,SURPRISE,AZ,85388,(602) 325-1799,33.61,-112.41,M-F 10:00am - 8:30pm,Sat. 9:30am - 6:00pm,Sun. 10:00am - 6:00pm
Superior Warehouse,600 MARSHALL RD,SUPERIOR,CO,80027-9730,(720) 587-1000,39.96,-105.172,M-F 10:00am - 8:30pm,Sat. 9:30am - 6:00pm,Sun. 10:00am - 6:00pm
Sunnyvale Warehouse,150 LAWRENCE STATION RD,SUNNYVALE,CA,94086-5309,(408) 730-1892,37.372,-121.996,M-F 9:00am - 8:30pm,Sat. 9:00am - 7:00pm,Sun. 9:00am - 7:00pm
Sun Prairie Warehouse,2850 HOEPKER RD,SUN PRAIRIE,WI,53590-9334,(608) 825-4001,43.165,-89.275,M-F 10:00am - 8:30pm,Sat. 9:30am - 6:00pm,Sun. 10:00am - 6:00pm
Summerlin Warehouse,801 S PAVILION CENTER DR,LAS VEGAS,NV,89144-4566,(702) 352-2053,36.163,-115.333,M-F 10:00am - 8:30pm,Sat. 9:30am - 6:00pm,Sun. 10:00am - 6:00pm
Sugar Land Warehouse,17520 SOUTHWEST FWY,SUGAR LAND,TX,77479-2359,(281) 566-6720,29.586,-95.642,M-F 10:00am - 8:30pm,Sat. 9:30am - 6:00pm,Sun. 10:00am - 6:00pm
Strongsville Warehouse,16690 ROYALTON RD,STRONGSVILLE,OH,44136-4433,(440) 783-3415,41.313,-81.817,M-F 10:00am - 8:30pm,Sat. 9:30am - 6:00pm,Sun. 10:00am - 6:00pm
Stockton Warehouse,1616 E HAMMER LN,STOCKTON,CA,95210-4119,(209) 478-2040,38.021,-121.292,M-F 9:00am - 8:30pm,Sat. 9:00am - 7:00pm,Sun. 9:00am - 7:00pm
Sterling Warehouse,21398 PRICE CASCADES PLZ,STERLING,VA,20164-6606,(703) 406-6500,39.023,-77.404,M-F 10:00am - 8:30pm,Sat. 9:30am - 6:00pm,Sun. 10:00am - 6:00pm
Staten Island Warehouse,2975 RICHMOND AVE,STATEN ISLAND,NY,10314-5851,(718) 982-9525,40.573,-74.17,M-F 10:00am - 8:30pm,Sat. 9:30am - 7:00pm,Sun. 10:00am - 6:00pm
Stafford Business Center Warehouse,12717 NETWORK DR,STAFFORD,TX,77477,(346) 309-3871,29.639,-95.578,Mon - Fri 07:00 AM - 06:00 PM,Sat. 07:00 AM - 04:00 PM,Sun. Closed
St Peters Warehouse,200 COSTCO WAY,SAINT PETERS,MO,63376-4385,(636) 970-4004,38.796,-90.609,M-F 10:00am - 8:30pm,Sat. 9:30am - 6:00pm,Sun. 10:00am - 6:00pm
St Louis Park Warehouse,5801 W 16TH ST,SAINT LOUIS PARK,MN,55416-1446,(763) 582-9603,44.968,-93.35,M-F 10:00am - 8:30pm,Sat. 9:30am - 6:00pm,Sun. 10:00am - 6:00pm
St George Warehouse,835 N 3050 E,SAINT GEORGE,UT,84790-9041,(435) 256-0003,37.125,-113.522,M-F 10:00am - 8:30pm,Sat. 9:30am - 6:00pm,Sun. 10:00am - 6:00pm
St Cloud Warehouse,3636 2ND ST S,SAINT CLOUD,MN,56301-3732,(320) 316-9865,45.55,-94.203,M-F 10:00am - 8:30pm,Sat. 9:30am - 6:00pm,Sun. 10:00am - 6:00pm
St Charles Warehouse,221 S RANDALL RD,SAINT CHARLES,IL,60174-1524,(630) 549-2024,41.909,-88.34,M-F 10:00am - 8:30pm,Sat. 9:30am - 6:00pm,Sun. 10:00am - 6:00pm
Springfield Warehouse,279 N. EASTGATE AVENUE,SPRINGFIELD,MO,65802,(417) 512-8939,37.21,-93.223,M-F 10:00am - 8:30pm,Sat. 9:30am - 6:00pm,Sun. 10:00am - 6:00pm
Springdale Warehouse,1100 E KEMPER RD,SPRINGDALE,OH,45246-3321,(513) 346-7943,39.286,-84.452,M-F 10:00am - 8:30pm,Sat. 9:30am - 6:00pm,Sun. 10:00am - 6:00pm
Spokane Warehouse,5601 E SPRAGUE AVE,SPOKANE,WA,99212-0826,(509) 842-0003,47.657,-117.333,M-F 10:00am - 8:30pm,Sat. 9:30am - 6:00pm,Sun. 10:00am - 6:00pm
Spartanburg Warehouse,211 W BLACKSTOCK RD,SPARTANBURG,SC,29301-1382,(864) 515-4942,34.94,-81.998,M-F 10:00am - 8:30pm,Sat. 9:30am - 6:00pm,Sun. 10:00am - 6:00pm
Sparks Warehouse,4810 GALLERIA PKWY,SPARKS,NV,89436-9605,(775) 356-4400,39.579,-119.74,M-F 10:00am - 8:30pm,Sat. 9:30am - 6:00pm,Sun. 10:00am - 6:00pm
Spanish Fork Warehouse,273 E 1000 N,SPANISH FORK,UT,84660-5844,(801) 504-9530,40.123,-111.649,M-F 10:00am - 8:30pm,Sat. 9:30am - 6:00pm,Sun. 10:00am - 6:00pm
Southlake Warehouse,2601 E STATE HIGHWAY 114,SOUTHLAKE,TX,76092-6668,(817) 749-2800,32.943,-97.113,M-F 10:00am - 8:30pm,Sat. 9:30am - 6:00pm,Sun. 10:00am - 6:00pm
South Ogden Warehouse,3656 WALL AVE,OGDEN,UT,84405-7101,(801) 317-3953,41.197,-111.979,M-F 10:00am - 8:30pm,Sat. 9:30am - 6:00pm,Sun. 10:00am - 6:00pm
South Jordan Warehouse,3571 W 10400 S,SOUTH JORDAN,UT,84095-7173,(801) 523-5287,40.56,-111.975,M-F 10:00am - 8:30pm,Sat. 9:30am - 6:00pm,Sun. 10:00am - 6:00pm
Sonterra Park Warehouse,1201 N LOOP 1604 E,SAN ANTONIO,TX,78232-1322,(210) 403-4703,29.611,-98.476,M-F 10:00am - 8:30pm,Sat. 9:30am - 6:00pm,Sun. 10:00am - 6:00pm
Sioux Falls Warehouse,3700 S GRANGE AVE,SIOUX FALLS,SD,57105-6359,(605) 988-9140,43.512,-96.741,M-F 10:00am - 8:30pm,Sat. 9:30am - 6:00pm,Sun. 10:00am - 6:00pm
Simi Valley Warehouse,2660 PARK CENTER DR,SIMI VALLEY,CA,93065-6207,(805) 578-3301,34.283,-118.797,M-F 10:00am - 8:30pm,Sat. 9:30am - 6:00pm,Sun. 10:00am - 6:00pm
Silverdale Warehouse,10000 MICKELBERRY RD NW,SILVERDALE,WA,98383-8302,(360) 692-9213,47.654,-122.682,M-F 10:00am - 8:30pm,Sat. 9:30am - 6:00pm,Sun. 10:00am - 6:00pm
Signal Hill Warehouse,2200 E WILLOW ST,SIGNAL HILL,CA,90755-2132,(562) 427-2537,33.804,-118.165,M-F 10:00am - 8:30pm,Sat. 9:30am - 6:00pm,Sun. 10:00am - 6:00pm
Sheridan Warehouse,4000 RIVER POINT PKWY,SHERIDAN,CO,80110-3316,(303) 200-1830,39.644,-105.006,M-F 10:00am - 8:30pm,Sat. 9:30am - 6:00pm,Sun. 10:00am - 6:00pm
Sharpsburg Warehouse,40 FISCHER CROSSINGS DR,SHARPSBURG,GA,30277,(678) 621-8594,33.4,-84.622,M-F 10:00am - 8:30pm,Sat. 9:30am - 6:00pm,Sun. 10:00am - 6:00pm
Sequim Warehouse,955 W WASHINGTON ST,SEQUIM,WA,98382-3266,(360) 406-2025,48.079,-123.125,M-F 10:00am - 8:30pm,Sat. 9:30am - 6:00pm,Sun. 10:00am - 6:00pm
Selma Warehouse,15330 IH-35 NORTH,SELMA,TX,78154-3814,(210) 332-1072,29.576,-98.317,M-F 10:00am - 8:30pm,Sat. 9:30am - 6:00pm,Sun. 10:00am - 6:00pm
Seattle Warehouse,4401 4TH AVE S,SEATTLE,WA,98134-2389,(206) 622-3136,47.565,-122.329,M-F 10:00am - 8:30pm,Sat. 9:30am - 6:00pm,Sun. 10:00am - 6:00pm
Scottsdale Warehouse,15255 N HAYDEN RD,SCOTTSDALE,AZ,85260-2507,(480) 948-5040,33.624,-111.902,M-F 10:00am - 8:30pm,Sat. 9:30am - 6:00pm,Sun. 10:00am - 6:00pm
Schaumburg Warehouse,1375 N MEACHAM RD,SCHAUMBURG,IL,60173-4805,(847) 969-0790,42.055,-88.045,M-F 10:00am - 8:30pm,Sat. 9:30am - 6:00pm,Sun. 10:00am - 6:00pm
Saratoga Springs Warehouse,1083 N REDWOOD RD.,SARATOGA SPRINGS,UT,84045,(801) 407-4194,40.382,-111.918,M-F 10:00am - 8:30pm,Sat. 9:30am - 6:00pm,Sun. 10:00am - 6:00pm
Sarasota Mall Warehouse,8201 S TAMIAMI TRL UNIT 501,SARASOTA,FL,34238-2966,(941) 554-2800,27.233,-82.498,M-F 10:00am - 8:30pm,Sat. 9:30am - 6:00pm,Sun. 10:00am - 6:00pm
Santee Warehouse,101 TOWN CENTER PKWY,SANTEE,CA,92071-5899,(619) 562-3227,32.841,-116.989,M-F 10:00am - 8:30pm,Sat. 9:30am - 6:00pm,Sun. 10:00am - 6:00pm
Santa Rosa Warehouse,1900 SANTA ROSA AVE,SANTA ROSA,CA,95407-7636,(707) 578-3775,38.42,-122.712,M-F 9:00am - 8:30pm,Sat. 9:00am - 7:00pm,Sun. 9:00am - 7:00pm
Santa Maria Warehouse,1700 S. BRADLEY RD.,SANTA MARIA,CA,93454-8001,(805) 928-8459,34.925,-120.419,M-F 10:00am - 8:30pm,Sat. 9:30am - 6:00pm,Sun. 10:00am - 6:00pm
Santa Cruz Warehouse,220 SYLVANIA AVE,SANTA CRUZ,CA,95060-2161,(831) 469-0961,36.985,-122.035,M-F 9:00am - 8:30pm,Sat. 9:00am - 7:00pm,Sun. 9:00am - 7:00pm
Santa Clarita Warehouse,18649 VIA PRINCESSA,SANTA CLARITA,CA,91387-4935,(661) 250-2818,34.403,-118.46,M-F 10:00am - 8:30pm,Sat. 9:30am - 6:00pm,Sun. 10:00am - 6:00pm
Santa Clara Warehouse,1601 COLEMAN AVE,SANTA CLARA,CA,95050-3100,(408) 567-9000,37.358,-121.937,M-F 9:00am - 8:30pm,Sat. 9:00am - 7:00pm,Sun. 9:00am - 7:00pm
Sandy Warehouse,11100 S AUTO MALL DR,SANDY,UT,84070-4171,(801) 790-0003,40.551,-111.894,M-F 10:00am - 8:30pm,Sat. 9:30am - 6:00pm,Sun. 10:00am - 6:00pm
Sand City Warehouse,801 TIOGA AVE,SAND CITY,CA,93955-3050,(831) 899-1255,36.617,-121.847,Mon - Fri 09:00 AM - 08:30 PM,Sat. 09:00 AM - 07:00 PM,Sun. 10:00 AM - 06:00 PM
Sanatoga Warehouse,14 W LIGHTCAP RD,POTTSTOWN,PA,19464-3413,(610) 569-4137,40.239,-75.576,M-F 10:00am - 8:30pm,Sat. 9:30am - 6:00pm,Sun. 10:00am - 6:00pm
San Marcos Warehouse,725 CENTER DRIVE,SAN MARCOS,CA,92069-3536,(760) 871-6867,33.137,-117.124,M-F 10:00am - 8:30pm,Sat. 9:30am - 6:00pm,Sun. 10:00am - 6:00pm
San Luis Obispo Warehouse,1540 FROOM RANCH WAY,SAN LUIS OBISPO,CA,93405-7211,(805) 541-7000,35.252,-120.689,M-F 10:00am - 8:30pm,Sat. 9:30am - 6:00pm,Sun. 10:00am - 6:00pm
San Leandro Warehouse,1900 DAVIS ST,SAN LEANDRO,CA,94577-1209,(510) 562-6708,37.718,-122.181,M-F 9:00am - 8:30pm,Sat. 9:00am - 7:00pm,Sun. 9:00am - 7:00pm
San Juan Capistrano Warehouse,33961 DOHENY PARK RD,SAN JUAN CAPISTRANO,CA,92675-4836,(949) 240-3558,33.469,-117.676,M-F 10:00am - 8:30pm,Sat. 9:30am - 6:00pm,Sun. 10:00am - 6:00pm
San Jose Warehouse,2201 SENTER RD,SAN JOSE,CA,95112-2627,(408) 275-0199,37.311,-121.851,M-F 9:00am - 8:30pm,Sat. 9:00am - 7:00pm,Sun. 9:00am - 7:00pm
San Jose Business Center Warehouse,2376 S EVERGREEN LOOP,SAN JOSE,CA,95122,(669) 236-4679,37.318,-121.811,Mon - Fri 07:00 AM - 06:00 PM,Sat. 07:00 AM - 04:00 PM,Sun. Closed
San Francisco Warehouse,450 10TH ST,SAN FRANCISCO,CA,94103-4304,(415) 626-4388,37.771,-122.411,M-F 9:00am - 8:30pm,Sat. 9:00am - 7:00pm,Sun. 9:00am - 7:00pm
San Dimas Warehouse,520 N LONE HILL AVE,SAN DIMAS,CA,91773-1725,(909) 962-5507,34.112,-117.829,M-F 10:00am - 8:30pm,Sat. 9:30am - 6:00pm,Sun. 10:00am - 6:00pm
San Diego Business Center Warehouse,7803 OTHELLO AVE,SAN DIEGO,CA,92111-3709,(858) 810-5833,32.816,-117.154,Mon - Fri 07:00 AM - 06:00 PM,Sat. 07:00 AM - 04:00 PM,Sun. Closed
San Bernardino Warehouse,1099 E HOSPITALITY LN,SAN BERNARDINO,CA,92408-2836,(909) 478-3445,34.069,-117.261,M-F 10:00am - 8:30pm,Sat. 9:30am - 6:00pm,Sun. 10:00am - 6:00pm
Salt Lake City Warehouse,1818 S 300 W,SALT LAKE CITY,UT,84115-1805,(801) 485-9715,40.731,-111.9,M-F 7:00am - 8:30pm,Sat. 7:00am - 6:00pm,Sun. 10:00am - 6:00pm
Salinas Warehouse,1339 N DAVIS RD,SALINAS,CA,93907-1988,(831) 424-4242,36.703,-121.667,M-F 9:00am - 8:30pm,Sat. 9:00am - 7:00pm,Sun. 10:00am - 7:00pm
Sacramento Warehouse,7981 E STOCKTON BLVD,SACRAMENTO,CA,95823-9606,(916) 682-3569,38.468,-121.415,M-F 9:00am - 8:30pm,Sat. 9:00am - 7:00pm,Sun. 9:00am - 7:00pm
Sacramento Business Center Warehouse,3360 EL CAMINO AVE,SACRAMENTO,CA,95821-6308,(916) 426-4556,38.607,-121.387,Mon - Fri 07:00 AM - 06:00 PM,Sat. 07:00 AM - 04:00 PM,Sun. Closed
SW Tucson Warehouse,1650 E TUCSON MARKETPLACE BLVD,TUCSON,AZ,85713-6561,(520) 791-7340,32.182,-110.947,M-F 10:00am - 8:30pm,Sat. 9:30am - 6:00pm,Sun. 10:00am - 6:00pm
SW Henderson Warehouse,3411 SAINT ROSE PKWY,HENDERSON,NV,89052-4570,(702) 803-7044,35.988,-115.139,M-F 10:00am - 8:30pm,Sat. 9:30am - 6:00pm,Sun. 10:00am - 6:00pm
SW Denver Warehouse,7900 W QUINCY AVE,LITTLETON,CO,80123-1350,(303) 933-4931,39.639,-105.085,M-F 10:00am - 8:30pm,Sat. 9:30am - 6:00pm,Sun. 10:00am - 6:00pm
SW Bakersfield Warehouse,4900 PANAMA LN,BAKERSFIELD,CA,93313-3479,(661) 398-4740,35.296,-119.057,M-F 10:00am - 8:30pm,Sat. 9:30am - 6:00pm,Sun. 10:00am - 6:00pm
SE San Diego Warehouse,650 GATEWAY CENTER DR,SAN DIEGO,CA,92102-4530,(619) 358-2303,32.712,-117.114,M-F 10:00am - 8:30pm,Sat. 9:30am - 6:00pm,Sun. 10:00am - 6:00pm
SE Memphis Warehouse,3775 HACKS CROSS RD,MEMPHIS,TN,38125-2302,(901) 214-0054,35.046,-89.796,M-F 10:00am - 8:30pm,Sat. 9:30am - 6:00pm,Sun. 10:00am - 6:00pm
SE Gilbert Warehouse,2887 S MARKET ST,GILBERT,AZ,85295-1303,(480) 366-3950,33.298,-111.748,M-F 10:00am - 8:30pm,Sat. 9:30am - 6:00pm,Sun. 10:00am - 6:00pm
SE Albuquerque Warehouse,500 EUBANK BLVD SE,ALBUQUERQUE,NM,87123-3338,(505) 332-6603,35.068,-106.531,M-F 10:00am - 8:30pm,Sat. 9:30am - 6:00pm,Sun. 10:00am - 6:00pm
S St Louis Warehouse,4200 RUSTY RD,SAINT LOUIS,MO,63128-1973,(314) 894-7950,38.508,-90.339,M-F 10:00am - 8:30pm,Sat. 9:30am - 6:00pm,Sun. 10:00am - 6:00pm
S San Francisco Warehouse,451 S AIRPORT BLVD,SOUTH SAN FRANCISCO,CA,94080-6909,(650) 872-2021,37.641,-122.403,M-F 9:00am - 8:30pm,Sat. 9:00am - 7:00pm,Sun. 9:00am - 7:00pm
S San Francisco Business Center Warehouse,900 DUBUQUE AVE,SOUTH SAN FRANCISCO,CA,94080-1805,(650) 784-4047,37.662,-122.402,Mon - Fri 07:00 AM - 06:00 PM,Sat. 07:00 AM - 04:00 PM,Sun. Closed
S Orlando Warehouse,4696 GARDENS PARK BLVD,ORLANDO,FL,32839-2171,(407) 586-7221,28.496,-81.426,M-F 10:00am - 8:30pm,Sat. 9:30am - 6:00pm,Sun. 10:00am - 6:00pm
S Indianapolis Warehouse,4628 E COUNTY LINE RD,INDIANAPOLIS,IN,46237-9105,(317) 360-7076,39.636,-86.089,M-F 10:00am - 8:30pm,Sat. 9:30am - 6:00pm,Sun. 10:00am - 6:00pm
S Austin Warehouse,4301 W WILLIAM CANNON DR BLDG A STE,AUSTIN,TX,78749-1499,(512) 382-3013,30.222,-97.839,M-F 10:00am - 8:30pm,Sat. 9:30am - 6:00pm,Sun. 10:00am - 6:00pm
Royal Palm Beach Warehouse,11001 SOUTHERN BLVD,ROYAL PALM BEACH,FL,33411-4240,(561) 803-8822,26.681,-80.22,M-F 10:00am - 8:30pm,Sat. 9:30am - 6:00pm,Sun. 10:00am - 6:00pm
Roseville MI Warehouse,27118 GRATIOT AVE,ROSEVILLE,MI,48066-2915,(586) 447-0191,42.496,-82.937,M-F 10:00am - 8:30pm,Sat. 9:30am - 6:00pm,Sun. 10:00am - 6:00pm
Roseville CA Warehouse,6750 STANFORD RANCH RD,ROSEVILLE,CA,95678-1907,(916) 789-1485,38.782,-121.266,M-F 9:00am - 8:30pm,Sat. 9:00am - 7:00pm,Sun. 9:00am - 7:00pm
Roseburg Warehouse,4141 NE STEPHENS ST,ROSEBURG,OR,97470-1161,(541) 378-0020,43.26,-123.351,M-F 10:00am - 8:30pm,Sat. 9:30am - 7:00pm,Sun. 10:00am - 6:00pm
Rohnert Park Warehouse,5901 REDWOOD DR,ROHNERT PARK,CA,94928-2076,(707) 540-9113,38.352,-122.715,M-F 10:00am - 8:30pm,Sat. 9:30am - 7:00pm,Sun. 10:00am - 7:00pm
Rockwall Warehouse,1225 STATE HIGHWAY 276,ROCKWALL,TX,75032-9376,(972) 772-1602,32.908,-96.446,M-F 10:00am - 8:30pm,Sat. 9:30am - 6:00pm,Sun. 10:00am - 6:00pm
Rochester NY Warehouse,335 WESTFALL ROAD,ROCHESTER,NY,14620-4603,(585) 471-6906,43.114,-77.614,M-F 10:00am - 8:30pm,Sat. 9:30am - 6:00pm,Sun. 10:00am - 6:00pm
Rochester MN Warehouse,2020 COMMERCE DR NW,ROCHESTER,MN,55901-3246,(507) 286-1860,44.051,-92.521,M-F 10:00am - 8:30pm,Sat. 9:30am - 6:00pm,Sun. 10:00am - 6:00pm
Robinson Warehouse,202 COSTCO DR,PITTSBURGH,PA,15205-4858,(412) 490-2204,40.458,-80.167,M-F 10:00am - 8:30pm,Sat. 9:30am - 6:00pm,Sun. 10:00am - 6:00pm
Riverhead Warehouse,1768 OLD COUNTRY RD,RIVERHEAD,NY,11901-3146,(631) 655-0110,40.925,-72.704,M-F 10:00am - 8:30pm,Sat. 9:30am - 6:00pm,Sun. 10:00am - 6:00pm
Ridgeland Warehouse,700 HIGHLAND COLONY PKWY,RIDGELAND,MS,39157,(601) 499-8581,32.423,-90.147,M-F 10:00am - 8:30pm,Sat. 9:30am - 6:00pm,Sun. 10:00am - 6:00pm
Richmond CA Warehouse,4801 CENTRAL AVENUE,RICHMOND,CA,94804-5878,(510) 898-2003,37.898,-122.321,M-F 9:00am - 8:30pm,Sat. 9:00am - 7:00pm,Sun. 9:00am - 7:00pm
Reno Warehouse,2200 HARVARD WAY,RENO,NV,89502-4000,(775) 689-2200,39.507,-119.786,M-F 9:00am - 8:30pm,Sat. 9:00am - 7:00pm,Sun. 9:00am - 7:00pm
Rego Park Warehouse,6135 JUNCTION BLVD,REGO PARK,NY,11374-2772,(718) 760-2180,40.734,-73.864,M-F 10:00am - 8:30pm,Sat. 9:30am - 7:00pm,Sun. 10:00am - 7:00pm
Redwood City Warehouse,2300 MIDDLEFIELD RD,REDWOOD CITY,CA,94063-2854,(650) 568-4040,37.48,-122.217,M-F 9:00am - 8:30pm,Sat. 9:00am - 7:00pm,Sun. 9:00am - 7:00pm
Redmond Warehouse,7725 188TH AVE NE,REDMOND,WA,98052-6088,(425) 406-5382,47.667,-122.164,Mon - Fri 10:00 AM - 08:30 PM,Sat. 09:30 AM - 06:00 PM,Sun. 10:00 AM - 06:00 PM
Redding Warehouse,1300 DANA DR,REDDING,CA,96003-4071,(530) 222-0199,40.586,-122.347,M-F 9:00am - 8:30pm,Sat. 9:30am - 7:00pm,Sun.10:00am - 6:00pm
Rancho Del Rey Warehouse,895 E H ST,CHULA VISTA,CA,91910-7807,(619) 656-0826,32.636,-117.025,M-F 10:00am - 8:30pm,Sat. 9:30am - 6:00pm,Sun. 10:00am - 6:00pm
Rancho Cucamonga Warehouse,11800 4TH ST,RANCHO CUCAMONGA,CA,91730-6129,(909) 581-1703,34.077,-117.547,M-F 10:00am - 8:30pm,Sat. 9:30am - 6:00pm,Sun. 10:00am - 6:00pm
Rancho Cordova Warehouse,11260 WHITE ROCK RD,RANCHO CORDOVA,CA,95742-6571,(916) 724-2240,38.59,-121.264,M-F 9:00am - 8:30pm,Sat. 9:30am - 7:00pm,Sun. 10:00am - 6:00pm
Raleigh Warehouse,2838 WAKE FOREST RD,RALEIGH,NC,27609-7840,(919) 755-2801,35.818,-78.622,M-F 10:00am - 8:30pm,Sat. 9:30am - 6:00pm,Sun. 10:00am - 6:00pm
Queens Warehouse,3250 VERNON BLVD,LONG ISLAND CITY,NY,11106-4927,(718) 267-3680,40.767,-73.937,M-F 10:00am - 8:30pm,Sat. 9:30am - 6:00pm,Sun. 10:00am - 6:00pm
Puyallup Warehouse,1201 39TH AVE SW,PUYALLUP,WA,98373-3803,(253) 445-7543,47.156,-122.309,M-F 10:00am - 8:30pm,Sat. 9:30am - 6:00pm,Sun. 10:00am - 6:00pm
Princeton Warehouse,4100 QUAKERBRIDGE RD,LAWRENCE TOWNSHIP,NJ,08648-4702,(609) 779-7000,40.281,-74.672,M-F 10:00am - 8:30pm,Sat. 9:30am - 6:00pm,Sun. 10:00am - 6:00pm
Prescott Warehouse,3911 E STATE ROUTE 69,PRESCOTT,AZ,86301-6717,(928) 541-2203,34.548,-112.397,M-F 10:00am - 8:30pm,Sat. 9:30am - 6:00pm,Sun. 10:00am - 6:00pm
Poway Warehouse,12155 TECH CENTER DR,POWAY,CA,92064-7156,(858) 848-2451,32.937,-117.036,M-F 10:00am - 8:30pm,Sat. 9:30am - 6:00pm,Sun. 10:00am - 6:00pm
Potomac Mills Warehouse,2700 POTOMAC MILLS CIRCLE,WOODBRIDGE,VA,22192-4653,(703) 490-7410,38.645,-77.3,M-F 10:00am - 8:30pm,Sat. 9:30am - 6:00pm,Sun. 10:00am - 6:00pm
Portland Warehouse,4849 NE 138TH AVE,PORTLAND,OR,97230-3401,(503) 252-2243,45.556,-122.521,M-F 10:00am - 8:30pm,Sat. 9:30am - 7:00pm,Sun. 10:00am - 6:00pm
Port Chester Warehouse,1 WESTCHESTER AVE,PORT CHESTER,NY,10573-4343,(914) 935-3103,41.009,-73.691,M-F 10:00am - 8:30pm,Sat. 9:30am - 6:00pm,Sun. 10:00am - 6:00pm
Pompano Warehouse,1800 W SAMPLE RD,POMPANO BEACH,FL,33064-1324,(954) 968-7114,26.274,-80.148,M-F 10:00am - 8:30pm,Sat. 9:30am - 6:00pm,Sun. 10:00am - 6:00pm
Pocatello Warehouse,305 W QUINN RD,POCATELLO,ID,83201-4988,(208) 238-4040,42.906,-112.455,M-F 10:00am - 8:30pm,Sat. 9:30am - 6:00pm,Sun. 10:00am - 6:00pm
Pleasant Prairie Warehouse,7707 94TH AVE,PLEASANT PRAIRIE,WI,53158-1955,(262) 597-1027,42.564,-87.921,M-F 10:00am - 8:30pm,Sat. 9:30am - 6:00pm,Sun. 10:00am - 6:00pm
Plainfield Warehouse,16261 S. BOULEVARD PLACE,PLAINFIELD,IL,60586,(815) 676-1170,41.589,-88.169,M-F 10:00am - 8:30pm,Sat. 9:30am - 6:00pm,Sun. 10:00am - 6:00pm
Pittsfield Township Warehouse,771 AIRPORT BLVD,ANN ARBOR,MI,48108-3601,(734) 213-8010,42.232,-83.741,M-F 10:00am - 8:30pm,Sat. 9:30am - 6:00pm,Sun. 10:00am - 6:00pm
Phoenix Business Center Warehouse,3801 N 33RD AVE,PHOENIX,AZ,85017-4508,(480) 293-2123,33.492,-112.128,Mon - Fri 07:00 AM - 06:00 PM,Sat. 07:00 AM - 04:00 PM,Sun. Closed
Pharr Warehouse,1501 W KELLY AVE,PHARR,TX,78577-5031,(956) 354-3900,26.194,-98.199,M-F 10:00am - 8:30pm,Sat. 9:30am - 6:00pm,Sun. 10:00am - 6:00pm
Pflugerville Warehouse,1901 KELLY LN,PFLUGERVILLE,TX,78660-5976,(737) 888-6037,30.47,-97.59,M-F 10:00am - 8:30pm,Sat. 9:30am - 6:00pm,Sun. 10:00am - 6:00pm
Pewaukee Warehouse,443 PEWAUKEE RD,PEWAUKEE,WI,53072-5886,(262) 956-6700,43.09,-88.23,M-F 10:00am - 8:30pm,Sat. 9:30am - 6:00pm,Sun. 10:00am - 6:00pm
Perrysburg Warehouse,26400 DIXIE HWY,PERRYSBURG,OH,43551-1967,(567) 368-6000,41.535,-83.636,M-F 10:00am - 8:30pm,Sat. 9:30am - 6:00pm,Sun. 10:00am - 6:00pm
Perimeter Warehouse,6350 PEACHTREE DUNWOODY RD,ATLANTA,GA,30328-4527,(770) 352-8660,33.928,-84.352,M-F 10:00am - 8:30pm,Sat. 9:30am - 6:00pm,Sun. 10:00am - 6:00pm
Pentagon City Warehouse,1200 S FERN ST,ARLINGTON,VA,22202-2862,(703) 413-2324,38.862,-77.057,M-F 10:00am - 8:30pm,Sat. 9:30am - 6:00pm,Sun. 10:00am - 6:00pm
Pembroke Pines Warehouse,15915 PINES BLVD,PEMBROKE PINES,FL,33027-1201,(954) 266-3460,26.008,-80.361,M-F 10:00am - 8:30pm,Sat. 9:30am - 6:00pm,Sun. 10:00am - 6:00pm
Pearland Warehouse,3500 BUSINESS CENTER DRIVE,PEARLAND,TX,77584-1952,(281) 707-7001,29.545,-95.391,M-F 10:00am - 8:30pm,Sat. 9:30am - 6:00pm,Sun. 10:00am - 6:00pm
Parker Warehouse,18414 COTTONWOOD DR,PARKER,CO,80138-8876,(303) 583-1939,39.559,-104.776,M-F 10:00am - 8:30pm,Sat. 9:30am - 6:00pm,Sun. 10:00am - 6:00pm
Paradise Valley Warehouse,4570 E CACTUS RD,PHOENIX,AZ,85032-7702,(480) 308-7044,33.6,-111.983,M-F 10:00am - 8:30pm,Sat. 9:30am - 6:00pm,Sun. 10:00am - 6:00pm
Palm Desert Warehouse,72800 DINAH SHORE DR,PALM DESERT,CA,92211-0817,(760) 770-2810,33.802,-116.391,M-F 10:00am - 8:30pm,Sat. 9:30am - 6:00pm,Sun. 10:00am - 6:00pm
Palm Beach Gardens Warehouse,3250 NORTHLAKE BLVD,PALM BEACH GARDENS,FL,33403-1702,(561) 776-3052,26.808,-80.087,M-F 10:00am - 8:30pm,Sat. 9:30am - 6:00pm,Sun. 10:00am - 6:00pm
Pacoima Warehouse,13550 PAXTON ST,PACOIMA,CA,91331-2352,(818) 272-2700,34.272,-118.428,M-F 10:00am - 8:30pm,Sat. 9:30am - 6:00pm,Sun. 10:00am - 6:00pm
Oxnard Warehouse,2001 E VENTURA BLVD,OXNARD,CA,93036-1813,(805) 983-4200,34.224,-119.15,M-F 10:00am - 8:30pm,Sat. 9:30am - 6:00pm,Sun. 10:00am - 6:00pm
Owings Mills Warehouse,10270 MILL RUN CIRCLE,OWINGS MILLS,MD,21117,(443) 501-7043,39.404,-76.789,M-F 10:00am - 8:30pm,Sat. 9:30am - 6:00pm,Sun. 10:00am - 6:00pm
Overland Park Warehouse,12221 BLUE VALLEY PKWY,OVERLAND PARK,KS,66213-2640,(913) 217-2050,38.907,-94.671,M-F 10:00am - 8:30pm,Sat. 9:30am - 6:00pm,Sun. 10:00am - 6:00pm
Orlando Business Center Warehouse,2101 WATERBRIDGE BLVD,ORLANDO,FL,32837-9283,(407) 586-7271,28.403,-81.407,M-F 7:00am - 6:00 pm,Sat: 7:00am - 4:00 pm,Sun. closed
Orland Park Warehouse,9915 W 159TH ST,ORLAND PARK,IL,60467-4572,(708) 645-5336,41.601,-87.86,M-F 10:00am - 8:30pm,Sat. 9:30am - 6:00pm,Sun. 10:00am - 6:00pm
Orem Warehouse,648 E 800 S,OREM,UT,84097-6528,(801) 851-5003,40.282,-111.68,M-F 10:00am - 8:30pm,Sat. 9:30am - 6:00pm,Sun. 10:00am - 6:00pm
Ontario Business Center Warehouse,3680 E GUASTI RD,ONTARIO,CA,91761,(909) 789-1221,34.064,-117.573,Mon - Fri 07:00 AM - 06:00 PM,Sat. 07:00 AM - 04:00 PM,Sun. Closed
Omaha Warehouse,12300 W DODGE RD,OMAHA,NE,68154-2382,(402) 952-3240,41.264,-96.102,M-F 10:00am - 8:30pm,Sat. 9:30am - 6:00pm,Sun. 10:00am - 6:00pm
Oklahoma City Warehouse,13200 N WESTERN AVE,OKLAHOMA CITY,OK,73114,(405) 832-5102,35.605,-97.53,M-F 10:00am - 8:30pm,Sat. 9:30am - 6:00pm,Sun. 10:00am - 6:00pm
Oceanside Warehouse,3705 HAMPTON RD,OCEANSIDE,NY,11572-4808,(516) 259-7002,40.619,-73.653,M-F 10:00am - 8:30pm,Sat. 9:30am - 6:00pm,Sun. 10:00am - 6:00pm
Ocean Township Warehouse,2361 STATE ROUTE 66,OCEAN,NJ,07712-3961,(732) 481-0023,40.243,-74.049,M-F 10:00am - 8:30pm,Sat. 9:30am - 6:00pm,Sun. 10:00am - 6:00pm
Oak Brook Warehouse,1901 W 22ND ST,OAK BROOK,IL,60523-1785,(630) 928-0235,41.846,-87.963,M-F 10:00am - 8:30pm,Sat. 9:30am - 6:00pm,Sun. 10:00am - 6:00pm
Novato Warehouse,300 VINTAGE WAY,NOVATO,CA,94945-5007,(415) 899-1332,38.086,-122.552,M-F 9:00am - 8:30pm,Sat. 9:30am - 7:00pm,Sun. 10:00am - 7:00pm
Norwalk CT Warehouse,779 CONNECTICUT AVENUE,NORWALK,CT,06854-1615,(203) 822-2003,41.092,-73.452,M-F 10:00am - 8:30pm,Sat. 9:30am - 6:00pm,Sun. 10:00am - 6:00pm
Norwalk CA Warehouse,12324 HOXIE AVE,NORWALK,CA,90650-2266,(562) 929-0826,33.922,-118.104,M-F 10:00am - 8:30pm,Sat. 9:30am - 6:00pm,Sun. 10:00am - 6:00pm
Northridge Warehouse,8810 TAMPA AVE,NORTHRIDGE,CA,91324-3519,(818) 775-1860,34.23,-118.554,M-F 10:00am - 8:30pm,Sat. 9:30am - 6:00pm,Sun. 10:00am - 6:00pm
North Riverside IL Warehouse,2500 SOUTH HARLEM AVE,NORTH RIVERSIDE,IL,60546-1415,(708) 853-1017,41.845,-87.807,M-F 10:00am - 8:30pm,Sat. 9:30am - 6:00pm,Sun. 10:00am - 6:00pm
North Plainfield Warehouse,1290 US HIGHWAY 22E,NORTH PLAINFIELD,NJ,07060-3518,(908) 546-5666,40.612,-74.46,M-F 10:00am - 8:30pm,Sat. 9:30am - 6:00pm,Sun. 10:00am - 6:00pm
North Brunswick Warehouse,100 GRAND AVENUE,NORTH BRUNSWICK,NJ,08902-5026,(732) 509-3905,40.436,-74.507,M-F 10:00am - 8:30pm,Sat. 9:30am - 6:00pm,Sun. 10:00am - 6:00pm
Norfolk Warehouse,850 GLENROCK RD,NORFOLK,VA,23502-3702,(757) 459-4471,36.852,-76.201,M-F 10:00am - 8:30pm,Sat. 9:30am - 6:00pm,Sun. 10:00am - 6:00pm
Niles Warehouse,7311 N MELVINA AVE,NILES,IL,60714-3905,(847) 972-3003,42.012,-87.782,M-F 10:00am - 8:30pm,Sat. 9:30am - 6:00pm,Sun. 10:00am - 6:00pm
Newport News Warehouse,12121 JEFFERSON AVE,NEWPORT NEWS,VA,23602-6916,(757) 746-2003,37.106,-76.495,M-F 10:00am - 8:30pm,Sat. 9:30am - 6:00pm,Sun. 10:00am - 6:00pm
Newington Warehouse,7373 BOSTON BLVD,SPRINGFIELD,VA,22153-2805,(703) 912-1203,38.739,-77.2,M-F 10:00am - 8:30pm,Sat. 9:30am - 6:00pm,Sun. 10:00am - 6:00pm
New Rochelle Warehouse,1 INDUSTRIAL LN,NEW ROCHELLE,NY,10805-1203,(914) 235-2233,40.898,-73.794,M-F 10:00am - 8:30pm,Sat. 9:30am - 6:00pm,Sun. 10:00am - 6:00pm
New Orleans Warehouse,3900 DUBLIN ST,NEW ORLEANS,LA,70118-4754,(504) 484-5220,29.967,-90.11,M-F 10:00am - 8:30pm,Sat. 9:30am - 6:00pm,Sun. 10:00am - 6:00pm
New Britain Warehouse,405 HARTFORD RD,NEW BRITAIN,CT,06053-1507,(860) 893-7001,41.709,-72.766,M-F 10:00am - 8:30pm,Sat. 9:30am - 6:00pm,Sun. 10:00am - 6:00pm
New Berlin Warehouse,15300 WEST GRANGE AVE,NEW BERLIN,WI,53151-7909,(262) 599-7030,42.945,-88.106,M-F 10:00am - 8:30pm,Sat. 9:30am - 6:00pm,Sun. 10:00am - 6:00pm
Nesconset Warehouse,3000 MIDDLE COUNTRY RD,NESCONSET,NY,11767-1072,(631) 366-1504,40.862,-73.133,M-F 10:00am - 8:30pm,Sat. 9:30am - 6:00pm,Sun. 10:00am - 6:00pm
Nashua Warehouse,311 DANIEL WEBSTER HWY,NASHUA,NH,03060-5702,(603) 888-3640,42.703,-71.441,M-F 10:00am - 8:30pm,Sat. 9:30am - 6:00pm,Sun. 10:00am - 6:00pm
Naples Warehouse,6275 NAPLES BLVD,NAPLES,FL,34109-2030,(239) 596-6404,26.219,-81.773,M-F 10:00am - 8:30pm,Sat. 9:30am - 6:00pm,Sun. 10:00am - 6:00pm
Naperville Warehouse,1320 S ROUTE 59,NAPERVILLE,IL,60564-5944,(630) 328-2900,41.727,-88.206,M-F 10:00am - 8:30pm,Sat. 9:30am - 6:00pm,Sun. 10:00am - 6:00pm
Nanuet Warehouse,50 OVERLOOK BLVD,NANUET,NY,10954-5292,(845) 425-1469,41.107,-74.026,M-F 10:00am - 8:30pm,Sat. 9:30am - 6:00pm,Sun. 10:00am - 6:00pm
Nampa Warehouse,16700 N MARKET PLACE BLVD,NAMPA,ID,83687-7909,(208) 465-3800,43.614,-116.592,M-F 10:00am - 8:30pm,Sat. 9:30am - 6:00pm,Sun. 10:00am - 6:00pm
NW Tucson Warehouse,3901 W COSTCO DR,TUCSON,AZ,85741-2864,(520) 797-1980,32.327,-111.048,M-F 10:00am - 8:30pm,Sat. 9:30am - 6:00pm,Sun. 10:00am - 6:00pm
NW San Antonio Warehouse,5611 UTSA BLVD,SAN ANTONIO,TX,78249-1619,(210) 200-2050,29.575,-98.596,M-F 10:00am - 8:30pm,Sat. 9:30am - 6:00pm,Sun. 10:00am - 6:00pm
NW Columbus Warehouse,7300 STATE ROUTE 161 E,PLAIN CITY,OH,43064-9276,(614) 733-5002,40.11,-83.189,M-F 10:00am - 8:30pm,Sat. 9:30am - 6:00pm,Sun. 10:00am - 6:00pm
NW Albuquerque Warehouse,9955 COORS BYPASS NW,ALBUQUERQUE,NM,87114-6196,(505) 922-7400,35.196,-106.662,M-F 10:00am - 8:30pm,Sat. 9:30am - 6:00pm,Sun. 10:00am - 6:00pm
NE San Jose Warehouse,1709 AUTOMATION PKWY,SAN JOSE,CA,95131-1866,(408) 678-2150,37.389,-121.883,M-F 9:00am - 8:30pm,Sat. 9:00am - 7:00pm,Sun. 9:00am - 7:00pm
NE Naperville Warehouse,1255 EAST OGDEN AVE,NAPERVILLE,IL,60563,(331) 215-5612,41.799,-88.124,M-F 10:00am - 8:30pm,Sat. 9:30am - 6:00pm,Sun. 10:00am - 6:00pm
NE Memphis Warehouse,2431 N GERMANTOWN PKWY,CORDOVA,TN,38016-4494,(901) 214-0003,35.192,-89.793,M-F 10:00am - 8:30pm,Sat. 9:30am - 6:00pm,Sun. 10:00am - 6:00pm
NE Louisville Warehouse,5020 NORTON HEALTHCARE BLVD,LOUISVILLE,KY,40241-2835,(502) 420-0160,38.315,-85.574,M-F 10:00am - 8:30pm,Sat. 9:30am - 6:00pm,Sun. 10:00am - 6:00pm
NE Anchorage Warehouse,4125 DEBARR RD,ANCHORAGE,AK,99508-3115,(907) 269-9510,61.21,-149.804,M-F 10:00am - 8:30pm,Sat. 9:30am - 7:00pm,Sun. 10:00am - 6:00pm
N Spokane Warehouse,12020 N NEWPORT HWY,SPOKANE,WA,99218-1655,(509) 466-9668,47.767,-117.385,M-F 10:00am - 8:30pm,Sat. 9:30am - 6:00pm,Sun. 10:00am - 6:00pm
N Phoenix Warehouse,19001 N 27TH AVE,PHOENIX,AZ,85027-5036,(623) 293-4400,33.659,-112.115,M-F 10:00am - 8:30pm,Sat. 9:30am - 6:00pm,Sun. 10:00am - 6:00pm
N Miami Warehouse,14800 SOLE MIA WAY,NORTH MIAMI,FL,33181,(305) 944-8711,25.914,-80.154,M-F 10:00am - 8:30pm,Sat. 9:30am - 6:00pm,Sun. 10:00am - 6:00pm
N Kansas City Warehouse,1600 NW 88TH ST,KANSAS CITY,MO,64155-2410,(816) 857-7086,39.255,-94.599,M-F 10:00am - 8:30pm,Sat. 9:30am - 6:00pm,Sun. 10:00am - 6:00pm
N Fresno Warehouse,7100 N ABBY ST,FRESNO,CA,93720-2920,(559) 437-3643,36.842,-119.789,M-F 9:00am - 8:30pm,Sat. 9:00am - 7:00pm,Sun. 9:00am - 7:00pm
N Fort Worth Warehouse,8900 TEHAMA RIDGE PKWY,FORT WORTH,TX,76177-2004,(817) 806-9833,32.9,-97.321,M-F 10:00am - 8:30pm,Sat. 9:30am - 6:00pm,Sun. 10:00am - 6:00pm
Myrtle Beach Warehouse,1021 OAK FOREST LN,MYRTLE BEACH,SC,29577-9795,(843) 839-6604,33.706,-78.916,M-F 10:00am - 8:30pm,Sat. 9:30am - 6:00pm,Sun. 10:00am - 6:00pm
Murray Warehouse,5201 S INTERMOUNTAIN DR,MURRAY,UT,84107-6024,(801) 290-4200,40.658,-111.891,M-F 10:00am - 8:30pm,Sat. 9:30am - 6:00pm,Sun. 10:00am - 6:00pm
Murfreesboro Warehouse,1524 BEASIE RD,MURFREESBORO,TN,37128,(615) 439-2639,35.826,-86.417,M-F 10:00am - 8:30pm,Sat. 9:30am - 6:00pm,Sun. 10:00am - 6:00pm
Mt Vernon Warehouse,7940 RICHMOND HWY,ALEXANDRIA,VA,22306-7826,(571) 458-3500,38.742,-77.086,M-F 10:00am - 8:30pm,Sat. 9:30am - 6:00pm,Sun. 10:00am - 6:00pm
Mt Prospect Warehouse,999 N ELMHURST RD,MOUNT PROSPECT,IL,60056-1133,(847) 660-2000,42.083,-87.937,M-F 10:00am - 8:30pm,Sat. 9:30am - 6:00pm,Sun. 10:00am - 6:00pm
Mt Pleasant Warehouse,3525 PARK AVENUE BLVD,MOUNT PLEASANT,SC,29466-7242,(843) 375-7021,32.88,-79.794,M-F 10:00am - 8:30pm,Sat. 9:30am - 6:00pm,Sun. 10:00am - 6:00pm
Mt Laurel Warehouse,100 CENTERTON RD,MOUNT LAUREL,NJ,08054-6103,(856) 359-3650,39.971,-74.912,M-F 10:00am - 8:30pm,Sat. 9:30am - 6:00pm,Sun. 10:00am - 6:00pm
Mountain View Warehouse,1000 N RENGSTORFF AVE,MOUNTAIN VIEW,CA,94043-1716,(650) 988-1841,37.42,-122.093,M-F 9:00am - 8:30pm,Sat. 9:00am - 7:00pm,Sun. 9:00am - 7:00pm
Morrow Business Center Warehouse,1700 MOUNT ZION RD,MORROW,GA,30260-3014,(678) 201-0003,33.572,-84.333,Mon - Fri 07:00 AM - 06:00 PM,Sat. 07:00 AM - 04:00 PM,Sun. Closed
Moreno Valley Warehouse,12700 DAY ST,MORENO VALLEY,CA,92553-7531,(951) 697-8900,33.938,-117.279,M-F 10:00am - 8:30pm,Sat. 9:30am - 6:00pm,Sun. 10:00am - 6:00pm
Morena Warehouse,4605 MORENA BLVD,SAN DIEGO,CA,92117-3650,(858) 270-6920,32.822,-117.225,Mon - Fri 10:00 AM - 08:30 PM,Sat. 09:30 AM - 06:00 PM,Sun. 10:00 AM - 06:00 PM
Mooresville Warehouse,392 TALBERT RD,MOORESVILLE,NC,28117,(980) 447-9749,35.582,-80.852,M-F 10:00am - 8:30pm,Sat. 9:30am - 6:00pm,Sun. 10:00am - 6:00pm
Moore Warehouse,2651 S. TELEPHONE RD,MOORE,OK,73160-0008,(405) 300-7661,35.313,-97.497,M-F 10:00am - 8:30pm,Sat. 9:30am - 6:00pm,Sun. 10:00am - 6:00pm
Montgomeryville Warehouse,740 UPPER STATE RD,NORTH WALES,PA,19454-1403,(215) 353-4153,40.238,-75.237,Mon - Fri 10:00 AM - 08:30 PM,Sat. 09:30 AM - 06:00 PM,Sun. 10:00 AM - 06:00 PM
Montgomery Warehouse,8251 EASTCHASE PKWY,MONTGOMERY,AL,36117-7033,(334) 270-7452,32.364,-86.151,M-F 10:00am - 8:30pm,Sat. 9:30am - 6:00pm,Sun. 10:00am - 6:00pm
Monterey Park Warehouse,2000 MARKET PLACE DR,MONTEREY PARK,CA,91755-7402,(323) 890-1904,34.037,-118.104,M-F 10:00am - 8:30pm,Sat. 9:30am - 6:00pm,Sun. 10:00am - 6:00pm
Montclair Warehouse,9404 CENTRAL AVE,MONTCLAIR,CA,91763-2421,(909) 575-5004,34.083,-117.69,Mon - Fri 10:00 AM - 08:30 PM,Sat. 09:30 AM - 06:00 PM,Sun. 10:00 AM - 06:00 PM
Modesto Warehouse,3801 PELANDALE AVE,MODESTO,CA,95356-8300,(209) 342-4903,37.7,-121.066,M-F 9:00am - 8:30pm,Sat. 9:00am - 7:00pm,Sun. 9:00am - 7:00pm
Mobile Warehouse,1450 TINGLE CIRCLE WEST,MOBILE,AL,36606-2632,(251) 308-7030,30.647,-88.119,M-F 10:00am - 8:30pm,Sat. 9:30am - 6:00pm,Sun. 10:00am - 6:00pm
Missoula Warehouse,3220 N RESERVE ST,MISSOULA,MT,59808-1556,(406) 543-6445,46.895,-114.039,M-F 10:00am - 8:30pm,Sat. 9:30am - 6:00pm,Sun. 10:00am - 6:00pm
Mission Valley Warehouse,2345 FENTON PKWY,SAN DIEGO,CA,92108-4743,(619) 358-4000,32.78,-117.13,M-F 10:00am - 8:30pm,Sat. 9:30am - 6:00pm,Sun. 10:00am - 6:00pm
Mishawaka Warehouse,625 E UNIVERSITY DR,GRANGER,IN,46530-7381,(574) 401-7004,41.72,-86.173,M-F 10:00am - 8:30pm,Sat. 9:30am - 6:00pm,Sun. 10:00am - 6:00pm
Minneapolis Business Center Warehouse,3311 BROADWAY ST NE,MINNEAPOLIS,MN,55413-4553,(651) 502-7600,44.999,-93.216,Mon - Fri 07:00 AM - 06:00 PM,Sat. 07:00 AM - 04:00 PM,Sun. Closed
Milford Warehouse,1718 BOSTON POST RD,MILFORD,CT,06460-2718,(203) 882-8881,41.249,-73.024,M-F 10:00am - 8:30pm,Sat. 9:30am - 6:00pm,Sun. 10:00am - 6:00pm
Midland Warehouse,4816 BAY CITY RD,MIDLAND,MI,48642,(989) 488-1553,43.604,-84.169,M-F 10:00am - 8:30pm,Sat. 9:30am - 6:00pm,Sun. 10:00am - 6:00pm
Middleton Warehouse,2150 DEMING WAY,MIDDLETON,WI,53562-5507,(608) 824-3950,43.098,-89.523,M-F 10:00am - 8:30pm,Sat. 9:30am - 6:00pm,Sun. 10:00am - 6:00pm
Middlebelt Warehouse,13700 MIDDLEBELT RD,LIVONIA,MI,48150-2215,(734) 427-0563,42.382,-83.334,M-F 10:00am - 8:30pm,Sat. 9:30am - 6:00pm,Sun. 10:00am - 6:00pm
Miami Warehouse,7795 WEST FLAGLER STREET,MIAMI,FL,33144-2359,(786) 482-7135,25.775,-80.322,M-F 10:00am - 8:30pm,Sat. 9:30am - 6:00pm,Sun. 10:00am - 6:00pm
Miami Lakes Warehouse,16580 NW 59TH AVE,MIAMI LAKES,FL,33014-5611,(305) 825-9818,25.919,-80.297,M-F 10:00am - 8:30pm,Sat. 9:30am - 6:00pm,Sun. 10:00am - 6:00pm
Mettawa Warehouse,25901 RIVERWOODS RD,METTAWA,IL,60045-3403,(847) 235-1302,42.236,-87.904,M-F 10:00am - 8:30pm,Sat. 9:30am - 6:00pm,Sun. 10:00am - 6:00pm
Mesa Warehouse,1444 S SOSSAMAN RD,MESA,AZ,85209-3400,(480) 333-6552,33.392,-111.668,M-F 10:00am - 8:30pm,Sat. 9:30am - 6:00pm,Sun. 10:00am - 6:00pm
Merrillville Warehouse,1310 E 79TH AVE,MERRILLVILLE,IN,46410-5768,(219) 641-6400,41.474,-87.322,M-F 10:00am - 8:30pm,Sat. 9:30am - 6:00pm,Sun. 10:00am - 6:00pm
Meridian Warehouse,3403 W. CHINDEN BLVD,MERIDIAN,ID,83646,(986) 200-4136,43.661,-116.436,M-F 10:00am - 8:30pm,Sat. 9:30am - 6:00pm,Sun. 10:00am - 6:00pm
Merced Warehouse,1445 R ST,MERCED,CA,95340-5850,(209) 725-5020,37.302,-120.494,M-F 9:00am - 8:30pm,Sat. 9:00am - 7:00pm,Sun. 9:00am - 6:00pm
Menomonee Falls Warehouse,W162N9235 PERSHING AVE,MENOMONEE FALLS,WI,53051-4026,(262) 946-6060,43.183,-88.112,M-F 10:00am - 8:30pm,Sat. 9:30am - 6:00pm,Sun. 10:00am - 6:00pm
Melville Warehouse,625 BROADHOLLOW RD,MELVILLE,NY,11747-5007,(631) 293-8707,40.759,-73.422,M-F 10:00am - 8:30pm,Sat. 9:30am - 6:00pm,Sun. 10:00am - 6:00pm
Melrose Park Warehouse,8400 W NORTH AVE,MELROSE PARK,IL,60160-1607,(708) 397-2905,41.908,-87.835,M-F 10:00am - 8:30pm,Sat. 9:30am - 6:00pm,Sun. 10:00am - 6:00pm
McKinney Warehouse,3650 W UNIVERSITY DR,MCKINNEY,TX,75071-2934,(469) 347-6421,33.218,-96.664,Mon - Fri 10:00 AM - 08:30 PM,Sat. 09:30 AM - 06:00 PM,Sun. 10:00 AM - 06:00 PM
Mayfield Heights Warehouse,1409 GOLDEN GATE BLVD,CLEVELAND,OH,44124-1808,(440) 544-1350,41.525,-81.447,M-F 10:00am - 8:30pm,Sat. 9:30am - 6:00pm,Sun. 10:00am - 6:00pm
Maui Warehouse,540 HALEAKALA HWY,KAHULUI,HI,96732-2302,(808) 877-5241,20.888,-156.451,M-F 10:00am - 8:30pm,Sat. 9:30am - 6:00pm,Sun. 10:00am - 6:00pm
Matthews Warehouse,2125 MATTHEWS TOWNSHIP PKWY,MATTHEWS,NC,28105-5766,(704) 321-7440,35.127,-80.704,M-F 10:00am - 8:30pm,Sat. 9:30am - 6:00pm,Sun. 10:00am - 6:00pm
Marysville Warehouse,16616 TWIN LAKES AVE,MARYSVILLE,WA,98271-4701,(360) 652-4532,48.148,-122.189,M-F 10:00am - 8:30pm,Sat. 9:30am - 6:00pm,Sun. 10:00am - 6:00pm
Marlboro Warehouse,18 ROUTE 9 NORTH,MORGANVILLE,NJ,07751-1526,(732) 617-4340,40.361,-74.304,M-F 10:00am - 8:30pm,Sat. 9:30am - 6:00pm,Sun. 10:00am - 6:00pm
Maplewood Warehouse,1431 BEAM AVE,MAPLEWOOD,MN,55109-1064,(612) 486-1740,45.028,-93.041,M-F 10:00am - 8:30pm,Sat. 9:30am - 6:00pm,Sun. 10:00am - 6:00pm
Maple Grove Warehouse,11330 FOUNTAINS DR,MAPLE GROVE,MN,55369-7200,(763) 494-8050,45.092,-93.424,M-F 10:00am - 8:30pm,Sat. 9:30am - 6:00pm,Sun. 10:00am - 6:00pm
Manteca Warehouse,2440 DANIELS ST,MANTECA,CA,95337-6745,(209) 825-8200,37.786,-121.256,M-F 10:00am - 8:30pm,Sat. 9:30am - 7:00pm,Sun. 10:00am - 6:00pm
Manhattan Warehouse,517 E 117TH ST,NEW YORK,NY,10035-4409,(212) 896-5875,40.796,-73.933,M-F 10:00am - 8:30pm,Sat. 9:30am - 6:00pm,Sun. 10:00am - 6:00pm
Manchester MO Warehouse,301 HIGHLANDS BLVD DRIVE,MANCHESTER,MO,63011-4385,(636) 686-7400,38.597,-90.505,M-F 10:00am - 8:30pm,Sat. 9:30am - 6:00pm,Sun. 10:00am - 6:00pm
Manassas Warehouse,10701 SUDLEY MANOR DR,MANASSAS,VA,20109-2845,(703) 368-7579,38.787,-77.515,M-F 10:00am - 8:30pm,Sat. 9:30am - 6:00pm,Sun. 10:00am - 6:00pm
Manahawkin Warehouse,245 STAFFORD PARK BLVD,STAFFORD TOWNSHIP,NJ,08050-2734,(609) 242-2011,39.71,-74.287,M-F 10:00am - 8:30pm,Sat. 9:30am - 6:00pm,Sun. 10:00am - 6:00pm
Mall Of Georgia Warehouse,1550 MALL OF GEORGIA BLVD,BUFORD,GA,30519-6551,(678) 288-3009,34.062,-83.995,M-F 10:00am - 8:30pm,Sat. 9:30am - 6:00pm,Sun. 10:00am - 6:00pm
Madison Heights Warehouse,30550 STEPHENSON HWY,MADISON HEIGHTS,MI,48071-1611,(248) 616-0048,42.517,-83.119,M-F 10:00am - 8:30pm,Sat. 9:30am - 6:00pm,Sun. 10:00am - 6:00pm
Lynnwood Warehouse,18109 33RD AVE W,LYNNWOOD,WA,98037-4840,(425) 697-1062,47.834,-122.276,M-F 10:00am - 8:30pm,Sat. 9:30am - 6:00pm,Sun. 10:00am - 6:00pm
Lynnwood Business Center Warehouse,19105 HIGHWAY 99,LYNNWOOD,WA,98036-5228,(425) 640-7700,47.826,-122.311,Mon - Fri 07:00 AM - 06:00 PM,Sat. 07:00 AM - 04:00 PM,Sun. Closed
Lubbock TX Warehouse,6020 34TH ST,LUBBOCK,TX,79407-3102,(806) 784-1450,33.563,-101.945,M-F 10:00am - 8:30pm,Sat. 9:30am - 6:00pm,Sun. 10:00am - 6:00pm
Loves Park Warehouse,5000 STADIUM DRIVE,LOVES PARK,IL,61111,(779) 513-8397,42.321,-88.962,Mon - Fri 10:00 AM - 08:30 PM,Sat. 09:30 AM - 06:00 PM,Sun. 10:00 AM - 06:00 PM
Louisville Warehouse,3408 BARDSTOWN RD,LOUISVILLE,KY,40218-4608,(502) 912-9869,38.205,-85.666,M-F 10:00am - 8:30pm,Sat. 9:30am - 6:00pm,Sun. 10:00am - 6:00pm
Los Feliz Warehouse,2901 LOS FELIZ BLVD,LOS ANGELES,CA,90039-1502,(323) 644-5201,34.126,-118.263,M-F 10:00am - 8:30pm,Sat. 9:30am - 6:00pm,Sun. 10:00am - 6:00pm
Lodi Warehouse,2680 REYNOLDS RANCH PKWY,LODI,CA,95240-6848,(209) 366-7300,38.1,-121.266,M-F 9:00am - 8:30pm,Sat. 9:00am - 7:00pm,Sun. 9:00am - 7:00pm
Livermore Warehouse,2800 INDEPENDENCE DR,LIVERMORE,CA,94551-7628,(925) 443-6306,37.702,-121.811,M-F 9:00am - 8:30pm,Sat. 9:00am - 7:00pm,Sun. 9:00am - 7:00pm
Little Rock Warehouse,16901 CHENAL PARKWAY,LITTLE ROCK,AR,72223,(501) 817-8603,34.757,-92.454,Mon - Fri 10:00 AM - 08:30 PM,Sat. 09:30 AM - 06:00 PM,Sun. 10:00 AM - 06:00 PM
Lincoln Warehouse,1620 PINE LAKE ROAD,LINCOLN,NE,68512-3612,(531) 333-7559,40.74,-96.699,M-F 10:00am - 8:30pm,Sat. 9:30am - 6:00pm,Sun. 10:00am - 6:00pm
Lincoln Park Warehouse,2746 N CLYBOURN AVE,CHICAGO,IL,60614-1006,(773) 360-2053,41.931,-87.677,M-F 10:00am - 8:30pm,Sat. 9:30am - 6:00pm,Sun. 10:00am - 6:00pm
Lexington Warehouse,1500 FITZGERALD CT,LEXINGTON,KY,40509-8307,(859) 245-3620,38.025,-84.407,M-F 10:00am - 8:30pm,Sat. 9:30am - 6:00pm,Sun. 10:00am - 6:00pm
Lewisville Warehouse,851 STATE HIGHWAY 121 BYP,LEWISVILLE,TX,75067-4158,(469) 948-1026,32.997,-96.964,M-F 10:00am - 8:30pm,Sat. 9:30am - 6:00pm,Sun. 10:00am - 6:00pm
Lenexa Warehouse,9350 MARSHALL DR,LENEXA,KS,66215-3845,(913) 227-3703,38.959,-94.731,M-F 10:00am - 8:30pm,Sat. 9:30am - 6:00pm,Sun. 10:00am - 6:00pm
Lehi Warehouse,198 N 1200 E,LEHI,UT,84043-2294,(801) 653-2700,40.39,-111.827,M-F 10:00am - 8:30pm,Sat. 9:30am - 6:00pm,Sun. 10:00am - 6:00pm
Leesburg Warehouse,1300 EDWARDS FERRY RD NE,LEESBURG,VA,20176-3355,(703) 669-5061,39.115,-77.533,Mon - Fri 10:00 AM - 08:30 PM,Sat. 09:30 AM - 06:00 PM,Sun. 10:00 AM - 06:00 PM
Lawrence Warehouse,605 ROCKAWAY TPKE,LAWRENCE,NY,11559-1029,(516) 371-2017,40.631,-73.738,M-F 10:00am - 8:30pm,Sat. 9:30am - 6:00pm,Sun. 10:00am - 6:00pm
Las Vegas Business Center Warehouse,222 S MARTIN L KING BLVD,LAS VEGAS,NV,89106-4305,(702) 384-6247,36.172,-115.163,Mon - Fri 07:00 AM - 06:00 PM,Sat. 07:00 AM - 04:00 PM,Sun. Closed
Lantana Warehouse,1873 LANTANA RD,LANTANA,FL,33462-2698,(561) 533-0958,26.587,-80.071,M-F 10:00am - 8:30pm,Sat. 9:30am - 6:00pm,Sun. 10:00am - 6:00pm
Lancaster PA Warehouse,1875 HEMPSTEAD RD,LANCASTER,PA,17601-5671,(717) 396-8460,40.052,-76.256,M-F 10:00am - 8:30pm,Sat. 9:30am - 6:00pm,Sun. 10:00am - 6:00pm
Lancaster CA Warehouse,1141 W AVENUE L,LANCASTER,CA,93534-7077,(661) 802-4470,34.66,-118.149,M-F 10:00am - 8:30pm,Sat. 9:30am - 6:00pm,Sun. 10:00am - 6:00pm
Lakewood Warehouse,340 LAKEWOOD CENTER MALL,LAKEWOOD,CA,90712-2409,(562) 295-1508,33.85,-118.142,M-F 10:00am - 8:30pm,Sat. 9:30am - 6:00pm,Sun. 10:00am - 6:00pm
Lakeside Warehouse,45460 MARKET ST,SHELBY TOWNSHIP,MI,48315-6224,(586) 580-2000,42.629,-82.981,M-F 10:00am - 8:30pm,Sat. 9:30am - 6:00pm,Sun. 10:00am - 6:00pm
Lake Zurich Warehouse,680 S RAND RD,LAKE ZURICH,IL,60047-3409,(847) 540-3050,42.185,-88.092,M-F 10:00am - 8:30pm,Sat. 9:30am - 6:00pm,Sun. 10:00am - 6:00pm
Lake In The Hills Warehouse,250 N RANDALL RD,LAKE IN THE HILLS,IL,60156-5943,(847) 960-9910,42.179,-88.338,M-F 10:00am - 8:30pm,Sat. 9:30am - 6:00pm,Sun. 10:00am - 6:00pm
Lake Elsinore Warehouse,29315 CENTRAL AVE,LAKE ELSINORE,CA,92532-2212,(951) 253-6030,33.695,-117.334,M-F 10:00am - 8:30pm,Sat. 9:30am - 6:00pm,Sun. 10:00am - 6:00pm
Laguna Niguel Warehouse,27972 CABOT RD,LAGUNA NIGUEL,CA,92677-1211,(949) 364-0217,33.556,-117.677,M-F 10:00am - 8:30pm,Sat. 9:30am - 6:00pm,Sun. 10:00am - 6:00pm
Laguna Marketplace Warehouse,27220 HEATHER RIDGE RD,LAGUNA NIGUEL,CA,92677-3418,(949) 389-8703,33.568,-117.712,M-F 10:00am - 8:30pm,Sat. 9:30am - 6:00pm,Sun. 10:00am - 6:00pm
Lafayette Warehouse,201 MEADOW FARM RD,LAFAYETTE,LA,70508-7277,(337) 541-7025,30.156,-92.043,M-F 10:00am - 8:30pm,Sat. 9:30am - 6:00pm,Sun. 10:00am - 6:00pm
Lacey Warehouse,1470 MARVIN RD NE,LACEY,WA,98516-3870,(360) 412-3500,47.06,-122.76,M-F 10:00am - 8:30pm,Sat. 9:30am - 6:00pm,Sun. 10:00am - 6:00pm
La Vista Warehouse,12515 PORTSIDE PARKWAY,LA VISTA,NE,68128-5622,(402) 378-7398,41.178,-96.104,M-F 10:00am - 8:30pm,Sat. 9:30am - 6:00pm,Sun. 10:00am - 6:00pm
La Quinta Warehouse,79795 HIGHWAY 111,LA QUINTA,CA,92253-4756,(760) 775-0363,33.707,-116.272,M-F 10:00am - 8:30pm,Sat. 9:30am - 6:00pm,Sun. 10:00am - 6:00pm
La Mesa Warehouse,8125 FLETCHER PKWY,LA MESA,CA,91942-2934,(619) 667-8504,32.775,-117.022,M-F 10:00am - 8:30pm,Sat. 9:30am - 6:00pm,Sun. 10:00am - 6:00pm
La Habra Warehouse,101 N BEACH BLVD,LA HABRA,CA,90631-4468,(562) 524-0001,33.933,-117.97,M-F 10:00am - 8:30pm,Sat. 9:30am - 6:00pm,Sun. 10:00am - 6:00pm
Kona Warehouse,73-5600 MAIAU ST,KAILUA KONA,HI,96740-2630,(808) 331-4800,19.687,-156.02,M-F 10:00am - 8:30pm,Sat. 9:30am - 6:00pm,Sun. 10:00am - 6:00pm
Kirkland Warehouse,8629 120TH AVE NE,KIRKLAND,WA,98033-5865,(425) 827-1693,47.681,-122.183,M-F 10:00am - 8:30pm,Sat. 9:30am - 6:00pm,Sun. 10:00am - 6:00pm
King Of Prussia Warehouse,201 ALLENDALE RD,KING OF PRUSSIA,PA,19406-1634,(610) 337-6601,40.091,-75.384,M-F 10:00am - 8:30pm,Sat. 9:30am - 6:00pm,Sun. 10:00am - 6:00pm
Kennewick Warehouse,8505 W. GAGE BLVD,KENNEWICK,WA,99336-8120,(509) 737-8861,46.226,-119.235,Mon - Fri 10:00 AM - 08:30 PM,Sat. 09:30 AM - 06:00 PM,Sun. 10:00 AM - 06:00 PM
Kendall Warehouse,13450 SW 120TH ST,MIAMI,FL,33186-7393,(305) 964-4227,25.656,-80.413,M-F 10:00am - 8:30pm,Sat. 9:30am - 6:00pm,Sun. 10:00am - 6:00pm
Kauai Warehouse,4300 NUHOU ST.,LIHUE,HI,96766-8002,(808) 241-4000,21.968,-159.382,M-F 10:00am - 8:30pm,Sat. 9:30am - 6:00pm,Sun. 10:00am - 6:00pm
Kapolei Warehouse,4589 KAPOLEI PKWY,KAPOLEI,HI,96707-1879,(808) 674-3900,21.328,-158.088,Mon - Fri 10:00 AM - 08:30 PM,Sat. 09:30 AM - 06:00 PM,Sun. 10:00 AM - 06:00 PM
Kansas City Warehouse,241 E LINWOOD BLVD,KANSAS CITY,MO,64111-1119,(816) 216-0003,39.068,-94.583,M-F 10:00am - 8:30pm,Sat. 9:30am - 6:00pm,Sun. 10:00am - 6:00pm
Kalispell Warehouse,2330 US HIGHWAY 93 N,KALISPELL,MT,59901-2547,(406) 758-2500,48.235,-114.331,M-F 10:00am - 8:30pm,Sat. 9:30am - 6:00pm,Sun. 10:00am - 6:00pm
Kalamazoo Warehouse,5100 CENTURY AVE,KALAMAZOO,MI,49006-5714,(269) 743-2298,42.271,-85.648,M-F 10:00am - 8:30pm,Sat. 9:30am - 6:00pm,Sun. 10:00am - 6:00pm
Juneau Warehouse,5225 COMMERCIAL BLVD,JUNEAU,AK,99801-7210,(907) 780-6740,58.358,-134.483,M-F 10:00am - 8:30pm,Sat. 9:30am - 6:00pm,Sun. 10:00am - 6:00pm
Iwilei Warehouse,525 ALAKAWA ST,HONOLULU,HI,96817-5764,(808) 526-6100,21.318,-157.87,M-F 9:00am - 8:30pm,Sat. 9:00am - 6:00pm,Sun. 9:00am - 6:00pm
Issaquah Warehouse,1801 10TH AVE NW,ISSAQUAH,WA,98027-5384,(425) 313-0965,47.551,-122.05,Mon - Fri 10:00 AM - 08:30 PM,Sat. 09:30 AM - 06:00 PM,Sun. 10:00 AM - 06:00 PM
Irvine Warehouse,115 TECHNOLOGY DR,IRVINE,CA,92618-2408,(949) 453-0435,33.661,-117.744,M-F 10:00am - 8:30pm,Sat. 9:30am - 6:00pm,Sun. 10:00am - 6:00pm
Inglewood Warehouse,3560 W CENTURY BLVD,INGLEWOOD,CA,90303-1201,(310) 242-2777,33.945,-118.335,M-F 10:00am - 8:30pm,Sat. 9:30am - 6:00pm,Sun. 10:00am - 6:00pm
Independence Warehouse,19040 E VALLEY VIEW PKWY,INDEPENDENCE,MO,64055-7004,(816) 200-2003,39.036,-94.356,M-F 10:00am - 8:30pm,Sat. 9:30am - 6:00pm,Sun. 10:00am - 6:00pm
Idaho Falls Warehouse,2495 E. LINCOLN ROAD,IDAHO FALLS,ID,83401,(986) 497-3149,43.512,-111.984,M-F 10:00am - 8:30pm,Sat. 9:30am - 6:00pm,Sun. 10:00am - 6:00pm
Huntsville Warehouse,1205 N. MEMORIAL PKWY,HUNTSVILLE,AL,35801-5930,(256) 519-2220,34.742,-86.601,M-F 10:00am - 8:30pm,Sat. 9:30am - 6:00pm,Sun. 10:00am - 6:00pm
Huntington Beach Warehouse,7562 CENTER AVE,HUNTINGTON BEACH,CA,92647-3002,(714) 372-7510,33.734,-117.996,M-F 10:00am - 8:30pm,Sat. 9:30am - 6:00pm,Sun. 10:00am - 6:00pm
Humble Warehouse,21802 TOWNSEN BLVD W.,HUMBLE,TX,77338-1594,(281) 707-7051,30.022,-95.268,M-F 10:00am - 8:30pm,Sat. 9:30am - 6:00pm,Sun. 10:00am - 6:00pm
Hoover Warehouse,3650 GALLERIA CIR,HOOVER,AL,35244-2346,(205) 909-1039,33.379,-86.811,M-F 10:00am - 8:30pm,Sat. 9:30am - 6:00pm,Sun. 10:00am - 6:00pm
Homestead Warehouse,501 WATERFRONT DR W,HOMESTEAD,PA,15120-5009,(412) 205-1000,40.404,-79.92,M-F 10:00am - 8:30pm,Sat. 9:30am - 6:00pm,Sun. 10:00am - 6:00pm
Holbrook Warehouse,125 BEACON DR,HOLBROOK,NY,11741-4309,(631) 244-0292,40.776,-73.052,M-F 10:00am - 8:30pm,Sat. 9:30am - 6:00pm,Sun. 10:00am - 6:00pm
Hillsboro Warehouse,1255 NE 48TH AVE,HILLSBORO,OR,97124-5008,(503) 681-2800,45.536,-122.935,M-F 10:00am - 8:30pm,Sat. 9:30am - 7:00pm,Sun. 10:00am - 6:00pm
Henderson Warehouse,791 MARKS ST,HENDERSON,NV,89014-8601,(702) 352-2000,36.069,-115.037,M-F 10:00am - 8:30pm,Sat. 9:30am - 6:00pm,Sun. 10:00am - 6:00pm
Helena Warehouse,2195 E CUSTER AVE,HELENA,MT,59602-1217,(406) 495-7042,46.617,-112.006,M-F 10:00am - 8:30pm,Sat. 9:30am - 6:00pm,Sun. 10:00am - 6:00pm
Hazlet Warehouse,2835 ROUTE 35 N,HAZLET,NJ,07730-1516,(732) 335-3800,40.42,-74.173,M-F 10:00am - 8:30pm,Sat. 9:30am - 6:00pm,Sun. 10:00am - 6:00pm
Hayward Warehouse,28505 HESPERIAN BLVD,HAYWARD,CA,94545-5008,(510) 921-3128,37.617,-122.088,Mon - Fri 09:00 AM - 08:30 PM,Sat. 09:00 AM - 07:00 PM,Sun. 09:00 AM - 07:00 PM
Hayward Business Center Warehouse,22330 HATHAWAY AVE,HAYWARD,CA,94541-4861,(510) 259-6600,37.667,-122.103,Mon - Fri 07:00 AM - 06:00 PM,Sat. 07:00 AM - 04:00 PM,Sun. Closed
Hawthorne Warehouse,14501 HINDRY AVENUE,HAWTHORNE,CA,90250-6748,(310) 727-0403,33.899,-118.373,M-F 10:00am - 8:30pm,Sat. 9:30am - 6:00pm,Sun. 10:00am - 6:00pm
Hawthorne Business Center Warehouse,12530 PRAIRIE AVE,HAWTHORNE,CA,90250-4638,(310) 220-8826,33.919,-118.343,Mon - Fri 07:00 AM - 06:00 PM,Sat. 07:00 AM - 04:00 PM,Sun. Closed
Hawaii Kai Warehouse,333 A KEAHOLE STREET,HONOLULU,HI,96825-3404,(808) 396-5538,21.284,-157.71,M-F 10:00am - 8:30pm,Sat. 9:30am - 6:00pm,Sun. 10:00am - 6:00pm
Harrisonburg Warehouse,1830 RESERVOIR ST,HARRISONBURG,VA,22801-8742,(540) 432-8989,38.428,-78.855,M-F 10:00am - 8:30pm,Sat. 9:30am - 6:00pm,Sun. 10:00am - 6:00pm
Harrisburg Warehouse,5125 JONESTOWN RD STE 221,HARRISBURG,PA,17112-2983,(717) 412-2050,40.313,-76.8,M-F 10:00am - 8:30pm,Sat. 9:30am - 6:00pm,Sun. 10:00am - 6:00pm
Hanford Warehouse,2395 E LACEY BLVD,HANFORD,CA,93230-4740,(559) 670-6008,36.326,-119.607,M-F 9:00am - 8:30pm,Sat. 9:30am - 7:00pm,Sun. 9:00am - 6:00pm
Haggerty Warehouse,20000 HAGGERTY RD,LIVONIA,MI,48152-1011,(734) 464-6399,42.418,-83.433,M-F 10:00am - 8:30pm,Sat. 9:30am - 6:00pm,Sun. 10:00am - 6:00pm
Hackensack Business Center Warehouse,80 S RIVER ST,HACKENSACK,NJ,07601-6954,(201) 296-3044,40.877,-74.041,Mon - Fri 07:00 AM - 06:00 PM,Sat. 07:00 AM - 04:00 PM,Sun. Closed
Gypsum Warehouse,170 COOLEY MESA RD,GYPSUM,CO,81637-9707,(970) 328-7603,39.643,-106.889,M-F 10:00am - 8:30pm,Sat. 9:30am - 6:00pm,Sun. 10:00am - 6:00pm
Gwinnett Warehouse,3980 VENTURE DR,DULUTH,GA,30096-5077,(770) 622-1330,33.949,-84.143,Mon - Fri 10:00 AM - 08:30 PM,Sat. 09:30 AM - 06:00 PM,Sun. 10:00 AM - 06:00 PM
Greenville Warehouse,1021 WOODRUFF RD,GREENVILLE,SC,29607-4108,(864) 297-2560,34.836,-82.313,M-F 10:00am - 8:30pm,Sat. 9:30am - 6:00pm,Sun. 10:00am - 6:00pm
Greensboro Warehouse,4201 W WENDOVER AVE,GREENSBORO,NC,27407-1908,(336) 291-4010,36.058,-79.884,M-F 10:00am - 8:30pm,Sat. 9:30am - 6:00pm,Sun. 10:00am - 6:00pm
Green Oak Township Warehouse,6700 WHITMORE LAKE RD,BRIGHTON,MI,48116-2160,(810) 220-8950,42.504,-83.759,M-F 10:00am - 8:30pm,Sat. 9:30am - 6:00pm,Sun. 10:00am - 6:00pm
Great Oaks Warehouse,6898 RALEIGH ROAD,SAN JOSE,CA,95119-1730,(408) 908-7929,37.244,-121.785,M-F 9:00am - 8:30pm,Sat. 9:00am - 7:00pm,Sun. 9:00am - 7:00pm
Grand Rapids Warehouse,5100 28TH ST SE,GRAND RAPIDS,MI,49512-2049,(616) 233-4401,42.913,-85.545,M-F 10:00am - 8:30pm,Sat. 9:30am - 6:00pm,Sun. 10:00am - 6:00pm
Grand Chute Warehouse,5401 W. INTEGRITY WAY,GRAND CHUTE,WI,54913-8602,(920) 815-4500,44.271,-88.488,M-F 10:00am - 8:30pm,Sat. 9:30am - 6:00pm,Sun. 10:00am - 6:00pm
Grafton Warehouse,950 PORT WASHINGTON RD,GRAFTON,WI,53024-9201,(262) 204-1050,43.311,-87.925,M-F 10:00am - 8:30pm,Sat. 9:30am - 6:00pm,Sun. 10:00am - 6:00pm
Goleta Warehouse,7095 MARKET PLACE DR,GOLETA,CA,93117-5905,(805) 685-3199,34.428,-119.873,M-F 10:00am - 8:30pm,Sat. 9:30am - 6:00pm,Sun. 10:00am - 6:00pm
Glenview Warehouse,2900 PATRIOT BLVD,GLENVIEW,IL,60026-8046,(847) 730-1003,42.107,-87.822,M-F 10:00am - 8:30pm,Sat. 9:30am - 6:00pm,Sun. 10:00am - 6:00pm
Glendale Warehouse,17550 N 79TH AVE,GLENDALE,AZ,85308-8711,(623) 776-4003,33.644,-112.231,M-F 10:00am - 8:30pm,Sat. 9:30am - 6:00pm,Sun. 10:00am - 6:00pm
Glen Burnie Warehouse,575 E ORDNANCE RD,GLEN BURNIE,MD,21060-6575,(410) 590-8603,39.197,-76.597,M-F 10:00am - 8:30pm,Sat. 9:30am - 6:00pm,Sun. 10:00am - 6:00pm
Gilroy Warehouse,7251 CAMINO ARROYO,GILROY,CA,95020-7340,(408) 848-0700,37.009,-121.554,Mon - Fri 10:00 AM - 08:30 PM,Sat. 09:30 AM - 07:00 PM,Sun. 10:00 AM - 07:00 PM
Gilbert Warehouse,1415 N ARIZONA AVE,GILBERT,AZ,85233-1616,(480) 293-0053,33.375,-111.842,M-F 10:00am - 8:30pm,Sat. 9:30am - 6:00pm,Sun. 10:00am - 6:00pm
Gig Harbor Warehouse,10990 HARBOR HILL DR NW,GIG HARBOR,WA,98332-8945,(253) 853-8600,47.359,-122.601,M-F 10:00am - 8:30pm,Sat. 9:30am - 6:00pm,Sun. 10:00am - 6:00pm
Garden Grove Warehouse,11000 GARDEN GROVE BLVD,GARDEN GROVE,CA,92843-1206,(714) 638-6308,33.774,-117.941,M-F 10:00am - 8:30pm,Sat. 9:30am - 6:00pm,Sun. 10:00am - 6:00pm
Galleria Warehouse,3836 RICHMOND AVE,HOUSTON,TX,77027-5802,(832) 325-5850,29.733,-95.439,M-F 10:00am - 8:30pm,Sat. 9:30am - 6:00pm,Sun. 10:00am - 6:00pm
Gaithersburg Warehouse,880 RUSSELL AVE,GAITHERSBURG,MD,20879-3506,(301) 417-1500,39.157,-77.213,M-F 10:00am - 8:30pm,Sat. 9:30am - 6:00pm,Sun. 10:00am - 6:00pm
Fullerton Warehouse,900 S HARBOR BLVD,FULLERTON,CA,92832-3098,(714) 738-7521,33.863,-117.924,M-F 10:00am - 8:30pm,Sat. 9:30am - 6:00pm,Sun. 10:00am - 6:00pm
Frisco Warehouse,11220 DALLAS PKWY,FRISCO,TX,75033-4102,(469) 200-7116,33.171,-96.839,M-F 10:00am - 8:30pm,Sat. 9:30am - 6:00pm,Sun. 10:00am - 6:00pm
Fresno Warehouse,4500 W SHAW AVE,FRESNO,CA,93722-6200,(559) 271-6511,36.809,-119.874,Mon - Fri 09:00 AM - 08:30 PM,Sat. 09:30 AM - 07:00 PM,Sun. 10:00 AM - 07:00 PM
Fremont Warehouse,43621 PACIFIC COMMONS BLVD,FREMONT,CA,94538-3809,(510) 897-1092,37.502,-121.971,M-F 9:00am - 8:30pm,Sat. 9:00am - 7:00pm,Sun. 9:00am - 7:00pm
Fredericksburg Warehouse,3102 PLANK RD # 600,FREDERICKSBURG,VA,22407-4954,(540) 785-1160,38.295,-77.517,M-F 10:00am - 8:30pm,Sat. 9:30am - 6:00pm,Sun. 10:00am - 6:00pm
Frederick Warehouse,10 MONOCACY BLVD,FREDERICK,MD,21704-7256,(301) 644-1483,39.402,-77.411,M-F 10:00am - 8:30pm,Sat. 9:30am - 6:00pm,Sun. 10:00am - 6:00pm
Fountain Valley Warehouse,17900 NEWHOPE ST,FOUNTAIN VALLEY,CA,92708-5404,(714) 338-2183,33.704,-117.935,M-F 10:00am - 8:30pm,Sat. 9:30am - 6:00pm,Sun. 10:00am - 6:00pm
Foster City Warehouse,1001 METRO CENTER BLVD,FOSTER CITY,CA,94404-2177,(650) 286-0739,37.561,-122.275,M-F 9:00am - 8:30pm,Sat. 9:00am - 7:00pm,Sun. 9:00am - 7:00pm
Fortune Park Warehouse,9010 MICHIGAN RD,INDIANAPOLIS,IN,46268-3184,(317) 532-1608,39.916,-86.225,M-F 10:00am - 8:30pm,Sat. 9:30am - 6:00pm,Sun. 10:00am - 6:00pm
Fort Worth Warehouse,5300 OVERTON RIDGE BLVD,FORT WORTH,TX,76132-3301,(817) 210-0003,32.676,-97.405,M-F 10:00am - 8:30pm,Sat. 9:30am - 6:00pm,Sun. 10:00am - 6:00pm
Fort Wayne Warehouse,5110 VALUE DR,FORT WAYNE,IN,46808-4048,(260) 481-1100,41.125,-85.156,M-F 10:00am - 8:30pm,Sat. 9:30am - 6:00pm,Sun. 10:00am - 6:00pm
Fort Oglethorpe Warehouse,100 COBB PKWY,RINGGOLD,GA,30736-8566,(706) 891-2579,34.967,-85.193,M-F 10:00am - 8:30pm,Sat. 9:30am - 6:00pm,Sun. 10:00am - 6:00pm
Fort Myers Warehouse,7171 CYPRESS LAKE DR,FORT MYERS,FL,33907-6521,(239) 415-3806,26.546,-81.875,M-F 10:00am - 8:30pm,Sat. 9:30am - 6:00pm,Sun. 10:00am - 6:00pm
Fontana Warehouse,16505 SIERRA LAKES PKWY,FONTANA,CA,92336-1256,(909) 770-5639,34.139,-117.444,M-F 10:00am - 8:30pm,Sat. 9:30am - 6:00pm,Sun. 10:00am - 6:00pm
Folsom Warehouse,1800 CAVITT DR,FOLSOM,CA,95630-6235,(916) 850-1000,38.646,-121.111,M-F 9:00am - 8:30pm,Sat. 9:00am - 7:00pm,Sun. 9:00am - 7:00pm
Florence Warehouse,800 HEIGHTS BLVD,FLORENCE,KY,41042-1415,(859) 568-7000,38.988,-84.647,M-F 10:00am - 8:30pm,Sat. 9:30am - 6:00pm,Sun. 10:00am - 6:00pm
Flemington Warehouse,2A WALTER E FORAN BLVD N,FLEMINGTON,NJ,08822-1613,(908) 905-7210,40.522,-74.853,M-F 10:00am - 8:30pm,Sat. 9:30am - 6:00pm,Sun. 10:00am - 6:00pm
Fife Business Center Warehouse,3900 20TH ST E,FIFE,WA,98424-1818,(253) 719-1950,47.239,-122.375,Mon - Fri 07:00 AM - 06:00 PM,Sat. 07:00 AM - 04:00 PM,Sun. Closed
Federal Way Warehouse,35100 ENCHANTED PKWY S,FEDERAL WAY,WA,98003-8314,(253) 874-3652,47.287,-122.314,M-F 10:00am - 8:30pm,Sat. 9:30am - 6:00pm,Sun. 10:00am - 6:00pm
Farragut Warehouse,10745 KINGSTON PIKE,KNOXVILLE,TN,37934-3002,(865) 218-7700,35.896,-84.141,M-F 10:00am - 8:30pm,Sat. 9:30am - 6:00pm,Sun. 10:00am - 6:00pm
Fairfield Warehouse,5101 BUSINESS CENTER DR,FAIRFIELD,CA,94534-1624,(707) 864-3816,38.217,-122.144,Mon - Fri 10:00 AM - 08:30 PM,Sat. 09:00 AM - 06:00 PM,Sun. 10:00 AM - 06:00 PM
Fairfax Warehouse,4725 W OX RD,FAIRFAX,VA,22030-6125,(703) 332-3200,38.851,-77.373,M-F 10:00am - 8:30pm,Sat. 9:30am - 6:00pm,Sun. 10:00am - 6:00pm
Fairbanks Warehouse,48 COLLEGE RD,FAIRBANKS,AK,99701-1706,(907) 205-3607,64.852,-147.708,M-F 10:00am - 8:30pm,Sat. 9:30am - 6:00pm,Sun. 10:00am - 6:00pm
Everett WA Warehouse,10200 19TH AVE SE,EVERETT,WA,98208-4256,(425) 379-7451,47.905,-122.207,M-F 10:00am - 8:30pm,Sat. 9:30am - 6:00pm,Sun. 10:00am - 6:00pm
Everett MA Warehouse,2 MYSTIC VIEW RD,EVERETT,MA,02149-2428,(617) 544-4806,42.402,-71.07,M-F 10:00am - 8:30pm,Sat. 9:30am - 6:00pm,Sun. 10:00am - 6:00pm
Evansville Warehouse,1201 CROSS POINTE PL,EVANSVILLE,IN,47715-9168,(812) 909-6572,37.989,-87.464,M-F 10:00am - 8:30pm,Sat. 9:30am - 6:00pm,Sun. 10:00am - 6:00pm
Eureka Warehouse,1006 W WABASH AVE,EUREKA,CA,95501-2121,(707) 441-8750,40.792,-124.182,M-F 10:00am - 8:30pm,Sat. 9:30am - 6:00pm,Sun.10:00am - 6:00pm
Eugene Warehouse,2828 CHAD DR,EUGENE,OR,97408-7337,(541) 683-8126,44.09,-123.068,M-F 10:00am - 8:30pm,Sat. 9:30am - 7:00pm,Sun. 10:00am - 6:00pm
Estero Warehouse,10088 GULF CENTER DR,FORT MYERS,FL,33913-8961,(239) 433-7240,26.489,-81.786,M-F 10:00am - 8:30pm,Sat. 9:30am - 6:00pm,Sun. 10:00am - 6:00pm
Enfield Warehouse,75 FRESHWATER BLVD,ENFIELD,CT,06082-3854,(860) 394-2000,41.994,-72.576,M-F 10:00am - 8:30pm,Sat. 9:30am - 6:00pm,Sun. 10:00am - 6:00pm
Elk Grove Warehouse,7400 ELK GROVE BLVD,ELK GROVE,CA,95757-6299,(916) 465-6050,38.409,-121.41,M-F 9:00am - 8:30pm,Sat. 9:00am - 7:00pm,Sun. 9:00am - 7:00pm
El Paso Warehouse,6101 GATEWAY BLVD W SUITE #1,EL PASO,TX,79925-3416,(915) 774-5203,31.782,-106.411,Mon - Fri 10:00 AM - 08:30 PM,Sat. 09:30 AM - 06:00 PM,Sun. 10:00 AM - 06:00 PM
El Centro Warehouse,2030 N IMPERIAL AVE,EL CENTRO,CA,92243-1323,(760) 353-2380,32.812,-115.57,M-F 10:00am - 8:30pm,Sat. 9:30am - 6:00pm,Sun. 10:00am - 6:00pm
El Camino Warehouse,1600 EL CAMINO REAL,SOUTH SAN FRANCISCO,CA,94080-1206,(650) 757-3003,37.665,-122.449,M-F 9:00am - 8:30pm,Sat. 9:00am - 7:00pm,Sun. 9:00am - 7:00pm
Edison Warehouse,205 VINEYARD RD,EDISON,NJ,08817-4785,(732) 491-2023,40.529,-74.377,M-F 10:00am - 8:30pm,Sat. 9:30am - 6:00pm,Sun. 10:00am - 6:00pm
Eden Prairie Warehouse,12011 TECHNOLOGY DR,EDEN PRAIRIE,MN,55344-3620,(952) 943-4801,44.862,-93.43,M-F 10:00am - 8:30pm,Sat. 9:30am - 6:00pm,Sun. 10:00am - 6:00pm
Eastvale Warehouse,5030 HAMNER AVE,EASTVALE,CA,91752-1009,(951) 749-7182,33.986,-117.558,M-F 10:00am - 8:30pm,Sat. 9:30am - 6:00pm,Sun. 10:00am - 6:00pm
Easton OH Warehouse,3888 STELZER RD,COLUMBUS,OH,43219-3044,(614) 934-6211,40.052,-82.909,M-F 10:00am - 8:30pm,Sat. 9:30am - 6:00pm,Sun. 10:00am - 6:00pm
East Peoria Warehouse,301 W WASHINGTON ST,EAST PEORIA,IL,61611-2036,(309) 427-2930,40.669,-89.584,M-F 10:00am - 8:30pm,Sat. 9:30am - 6:00pm,Sun. 10:00am - 6:00pm
East Lansing Warehouse,2540 E SAGINAW HIGHWAY,EAST LANSING,MI,48823-9719,(517) 903-5000,42.752,-84.448,M-F 10:00am - 8:30pm,Sat. 9:30am - 6:00pm,Sun. 10:00am - 6:00pm
East Hanover Warehouse,156 SR-10 WEST,EAST HANOVER,NJ,07936-2107,(973) 602-2000,40.812,-74.38,M-F 10:00am - 8:30pm,Sat. 9:30am - 6:00pm,Sun. 10:00am - 6:00pm
Eagan Warehouse,995 BLUE GENTIAN RD,EAGAN,MN,55121-1542,(612) 439-8060,44.857,-93.129,M-F 10:00am - 8:30pm,Sat. 9:30am - 6:00pm,Sun. 10:00am - 6:00pm
E Vancouver WA Warehouse,19610 SE 1ST ST,CAMAS,WA,98607-7472,(360) 258-6221,45.622,-122.473,M-F 10:00am - 8:30pm,Sat. 9:30am - 7:00pm,Sun. 10:00am - 6:00pm
E Plano Warehouse,3800 N CENTRAL EXPY,PLANO,TX,75074-2221,(972) 244-0003,33.045,-96.7,M-F 10:00am - 8:30pm,Sat. 9:30am - 6:00pm,Sun. 10:00am - 6:00pm
E Orlando Warehouse,3333 UNIVERSITY BLVD,WINTER PARK,FL,32792-7428,(407) 681-2119,28.597,-81.301,M-F 10:00am - 8:30pm,Sat. 9:30am - 6:00pm,Sun. 10:00am - 6:00pm
E Lyme Warehouse,284 FLANDERS RD,EAST LYME,CT,06333-1710,(860) 691-9647,41.359,-72.213,M-F 10:00am - 8:30pm,Sat. 9:30am - 6:00pm,Sun. 10:00am - 6:00pm
E Jacksonville Warehouse,4901 GATE PKWY,JACKSONVILLE,FL,32246-4405,(904) 997-7003,30.252,-81.536,M-F 10:00am - 8:30pm,Sat. 9:30am - 6:00pm,Sun. 10:00am - 6:00pm
E Colorado Springs Warehouse,5885 BARNES RD,COLORADO SPRINGS,CO,80922-3512,(719) 591-3002,38.893,-104.718,M-F 10:00am - 8:30pm,Sat. 9:30am - 6:00pm,Sun. 10:00am - 6:00pm
E Bayamon Warehouse,125 CALLE A,BAYAMON,PR,959,(787) 993-9303,18.385,-66.139,Mon - Fri 10:00 AM - 08:30 PM,Sat. 09:30 AM - 06:00 PM,Sun. 10:00 AM - 06:00 PM
Durham Warehouse,1510 N POINTE DR,DURHAM,NC,27705-3405,(919) 220-2770,36.028,-78.914,M-F 10:00am - 8:30pm,Sat. 9:30am - 6:00pm,Sun. 10:00am - 6:00pm
Duncanville Warehouse,250 W HIGHWAY 67,DUNCANVILLE,TX,75137-4415,(469) 221-8113,32.621,-96.911,M-F 10:00am - 8:30pm,Sat. 9:30am - 6:00pm,Sun. 10:00am - 6:00pm
Duluth Warehouse,4611 W ARROWHEAD RD.,DULUTH,MN,55811,(218) 600-5978,46.823,-92.173,M-F 10:00am - 8:30pm,Sat. 9:30am - 6:00pm,Sun. 10:00am - 6:00pm
Douglas County Warehouse,8686 PARK MEADOWS CENTER DR,LITTLETON,CO,80124-5129,(303) 708-0012,39.561,-104.879,M-F 10:00am - 8:30pm,Sat. 9:30am - 6:00pm,Sun. 10:00am - 6:00pm
Denver Business Center Warehouse,400 S ZUNI ST,DENVER,CO,80223-1969,(303) 830-4529,39.709,-105.016,Mon - Fri 07:00 AM - 06:00 PM,Sat. 07:00 AM - 04:00 PM,Sun. Closed
Deerfield Warehouse,9691 WATERSTONE BLVD,CINCINNATI,OH,45249-8220,(513) 774-0024,39.297,-84.302,M-F 10:00am - 8:30pm,Sat. 9:30am - 6:00pm,Sun. 10:00am - 6:00pm
Dedham Warehouse,200 LEGACY BLVD,DEDHAM,MA,02026-2653,(781) 251-9975,42.231,-71.175,M-F 10:00am - 8:30pm,Sat. 9:30am - 6:00pm,Sun. 10:00am - 6:00pm
Davie Warehouse,1890 S UNIVERSITY DR,DAVIE,FL,33324-5847,(954) 370-8990,26.097,-80.251,M-F 10:00am - 8:30pm,Sat. 9:30am - 6:00pm,Sun. 10:00am - 6:00pm
Davenport Warehouse,2790 E 53RD ST,DAVENPORT,IA,52807-3007,(563) 893-7004,41.575,-90.524,M-F 10:00am - 8:30pm,Sat. 9:30am - 6:00pm,Sun. 10:00am - 6:00pm
Danville Warehouse,3150 FOSTORIA WAY,DANVILLE,CA,94526-5553,(925) 277-0407,37.782,-121.975,Mon - Fri 09:00 AM - 08:30 PM,Sat. 09:00 AM - 07:00 PM,Sun. 09:00 AM - 07:00 PM
Danvers Warehouse,11 NEWBURY ST,DANVERS,MA,01923-1014,(978) 750-1000,42.557,-70.979,M-F 10:00am - 8:30pm,Sat. 9:30am - 6:00pm,Sun. 10:00am - 6:00pm
Dallas Warehouse,8055 CHURCHILL WAY,DALLAS,TX,75251-2149,(469) 680-7546,32.919,-96.768,Mon - Fri 10:00 AM - 08:30 PM,Sat. 09:30 AM - 06:00 PM,Sun. 10:00 AM - 06:00 PM
Dallas GA Warehouse,1715 CHARLES HARDY PKWY,DALLAS,GA,30157,(404) 806-4595,33.92,-84.761,M-F 10:00am - 8:30pm,Sat. 9:30am - 6:00pm,Sun. 10:00am - 6:00pm
Dallas Business Center Warehouse,8282 PARK LN,DALLAS,TX,75231-6023,(469) 498-6623,32.871,-96.763,Mon - Fri 07:00 AM - 06:00 PM,Sat. 07:00 AM - 04:00 PM,Sun. Closed
Cypress TX Warehouse,26960 NW FREEWAY,CYPRESS,TX,77433-4934,(832) 653-4576,29.978,-95.711,M-F 10:00am - 8:30pm,Sat. 9:30am - 6:00pm,Sun. 10:00am - 6:00pm
Cypress CA Warehouse,5401 KATELLA AVE,CYPRESS,CA,90720-2809,(562) 668-5150,33.803,-118.039,M-F 10:00am - 8:30pm,Sat. 9:30am - 6:00pm,Sun. 10:00am - 6:00pm
Cumming Warehouse,1211 BALD RIDGE MARINA RD,CUMMING,GA,30041-8484,(470) 239-6610,34.212,-84.116,M-F 10:00am - 8:30pm,Sat. 9:30am - 6:00pm,Sun. 10:00am - 6:00pm
Cumberland Mall Warehouse,2900 CUMBERLAND MALL SE,ATLANTA,GA,30339-8107,(770) 431-1700,33.881,-84.472,M-F 10:00am - 8:30pm,Sat. 9:30am - 6:00pm,Sun. 10:00am - 6:00pm
Culver City Warehouse,13463 WASHINGTON BLVD,MARINA DEL REY,CA,90292-5658,(310) 754-2003,33.991,-118.446,M-F 9:00am - 8:30pm,Sat. 9:00am - 6:00pm,Sun. 9:00am - 6:00pm
Cranberry Township Warehouse,1050 CRANBERRY SQUARE DR,CRANBERRY TOWNSHIP,PA,16066-6142,(724) 778-6300,40.692,-80.11,M-F 10:00am - 8:30pm,Sat. 9:30am - 6:00pm,Sun. 10:00am - 6:00pm
Covington Warehouse,27520 COVINGTON WAY SE,COVINGTON,WA,98042-9100,(253) 796-1004,47.355,-122.121,M-F 10:00am - 8:30pm,Sat. 9:30am - 6:00pm,Sun. 10:00am - 6:00pm
Corona Warehouse,480 N MCKINLEY ST,CORONA,CA,92879-1291,(951) 279-1190,33.89,-117.521,M-F 10:00am - 8:30pm,Sat. 9:30am - 6:00pm,Sun. 10:00am - 6:00pm
Coralville Warehouse,2900 HEARTLAND DR,CORALVILLE,IA,52241-2740,(319) 545-3200,41.698,-91.615,M-F 10:00am - 8:30pm,Sat. 9:30am - 6:00pm,Sun. 10:00am - 6:00pm
Coral Springs Warehouse,4621 CORAL RIDGE DR,CORAL SPRINGS,FL,33076-2200,(954) 715-8240,26.288,-80.283,M-F 10:00am - 8:30pm,Sat. 9:30am - 6:00pm,Sun. 10:00am - 6:00pm
Coon Rapids Warehouse,12547 RIVERDALE BLVD NW,MINNEAPOLIS,MN,55448-6708,(763) 712-7763,45.199,-93.35,M-F 10:00am - 8:30pm,Sat. 9:30am - 6:00pm,Sun. 10:00am - 6:00pm
Concordville Warehouse,700 EVERGREEN DR,GLEN MILLS,PA,19342-2102,(610) 387-2205,39.883,-75.53,M-F 10:00am - 8:30pm,Sat. 9:30am - 6:00pm,Sun. 10:00am - 6:00pm
Concord Warehouse,2400 MONUMENT BLVD,CONCORD,CA,94520-3105,(925) 566-4003,37.959,-122.035,Mon - Fri 09:00 AM - 08:30 PM,Sat. 09:00 AM - 07:00 PM,Sun. 09:00 AM - 07:00 PM
Commerce Township Warehouse,3000 COMMERCE XING,COMMERCE TOWNSHIP,MI,48390-3082,(248) 529-2300,42.535,-83.445,M-F 10:00am - 8:30pm,Sat. 9:30am - 6:00pm,Sun. 10:00am - 6:00pm
Commerce Business Center Warehouse,6333 TELEGRAPH RD,COMMERCE,CA,90040-2513,(323) 767-2640,33.995,-118.143,Mon - Fri 07:00 AM - 06:00 PM,Sat. 07:00 AM - 04:00 PM,Sun. Closed
Commack Warehouse,10 GARET PL,COMMACK,NY,11725-5421,(631) 462-3900,40.807,-73.287,M-F 10:00am - 8:30pm,Sat. 9:30am - 6:00pm,Sun. 10:00am - 6:00pm
Columbus Warehouse,1500 GEMINI PL,COLUMBUS,OH,43240-7002,(614) 987-1900,40.148,-82.978,M-F 10:00am - 8:30pm,Sat. 9:30am - 6:00pm,Sun. 10:00am - 6:00pm
Columbia SC Warehouse,507 PINEY GROVE RD,COLUMBIA,SC,29210-3405,(803) 875-7130,34.068,-81.139,Mon - Fri 10:00 AM - 08:30 PM,Sat. 09:30 AM - 06:00 PM,Sun. 10:00 AM - 06:00 PM
Columbia MD Warehouse,6675 MARIE CURIE DR,ELKRIDGE,MD,21075-6457,(410) 423-4052,39.187,-76.795,Mon - Fri 10:00 AM - 08:30 PM,Sat. 09:30 AM - 06:00 PM,Sun. 10:00 AM - 06:00 PM
Colchester Warehouse,218 LOWER MOUNTAIN VIEW DR,COLCHESTER,VT,05446-5830,(802) 318-2000,44.506,-73.177,M-F 10:00am - 8:30pm,Sat. 9:30am - 6:00pm,Sun. 10:00am - 6:00pm
Coeur D' Alene Warehouse,355 E NEIDER AVE,COEUR D' ALENE,ID,83815-3723,(208) 676-7351,47.708,-116.782,M-F 10:00am - 8:30pm,Sat. 9:30am - 6:00pm,Sun. 10:00am - 6:00pm
Clovis Warehouse,2270 CLOVIS AVE,CLOVIS,CA,93612,(559) 291-3377,36.806,-119.701,M-F 9:00am - 8:30pm,Sat. 9:30am - 6:00pm,Sun. 9:00am - 7:00pm
Clifton Warehouse,20 BRIDEWELL PL,CLIFTON,NJ,07014-1724,(973) 779-8715,40.831,-74.136,M-F 10:00am - 8:30pm,Sat. 9:30am - 6:00pm,Sun. 10:00am - 6:00pm
Clearwater Warehouse,2655 GULF TO BAY BLVD,CLEARWATER,FL,33759-4936,(727) 373-1951,27.96,-82.728,M-F 10:00am - 8:30pm,Sat. 9:30am - 6:00pm,Sun. 10:00am - 6:00pm
Clarkston Warehouse,301 5TH ST,CLARKSTON,WA,99403-1860,(509) 758-1800,46.423,-117.044,M-F 10:00am - 8:30pm,Sat. 9:30am - 6:00pm,Sun. 10:00am - 6:00pm
Clackamas Warehouse,13130 SE 84TH AVE,CLACKAMAS,OR,97015-9733,(503) 794-5500,45.428,-122.575,Mon - Fri 10:00 AM - 08:30 PM,Sat. 09:30 AM - 07:00 PM,Sun. 10:00 AM - 06:00 PM
City Of Industry Warehouse,17550 CASTLETON ST,CITY OF INDUSTRY,CA,91748-1701,(626) 839-3053,33.995,-117.921,M-F 10:00am - 8:30pm,Sat. 9:30am - 6:00pm,Sun. 10:00am - 6:00pm
Citrus Heights Warehouse,7000 AUBURN BLVD,CITRUS HEIGHTS,CA,95621-4342,(916) 560-4003,38.692,-121.297,M-F 9:00am - 8:30pm,Sat. 9:00am - 7:00pm,Sun. 10:00am - 7:00pm
Chula Vista Warehouse,1130 BROADWAY,CHULA VISTA,CA,91911-2707,(619) 205-1501,32.609,-117.081,M-F 10:00am - 8:30pm,Sat. 9:30am - 6:00pm,Sun. 10:00am - 6:00pm
Christiana Warehouse,900 CENTER BLVD,NEWARK,DE,19702-3221,(302) 894-0511,39.675,-75.649,M-F 10:00am - 8:30pm,Sat. 9:30am - 7:30pm,Sun. 10:00am - 6:00pm
Chino Hills Warehouse,13111 PEYTON DR,CHINO HILLS,CA,91709-6002,(909) 464-2900,34.014,-117.745,M-F 10:00am - 8:30pm,Sat. 9:30am - 6:00pm,Sun. 10:00am - 6:00pm
Chico Warehouse,2100 DR MLK JR PKWY,CHICO,CA,95928-4422,(530) 332-1742,39.723,-121.81,M-F 9:00am - 8:30pm,Sat. 9:00am - 7:00pm,Sun. 9:00am - 7:00pm
Chicago South Loop Warehouse,1430 S ASHLAND AVE,CHICAGO,IL,60608-2040,(312) 492-3609,41.863,-87.666,M-F 10:00am - 8:30pm,Sat. 9:30am - 6:00pm,Sun. 10:00am - 6:00pm
Chesterfield Warehouse,1401 MALL DR,NORTH CHESTERFIELD,VA,23235-4887,(804) 464-9110,37.511,-77.607,M-F 10:00am - 8:30pm,Sat. 9:30am - 6:00pm,Sun. 10:00am - 6:00pm
Cherry Hill Warehouse,650 GARDEN PARK BLVD,CHERRY HILL,NJ,08002-4250,(856) 406-7430,39.924,-75.041,M-F 10:00am - 8:30pm,Sat. 9:30am - 6:00pm,Sun. 10:00am - 6:00pm
Charlottesville Warehouse,3171 DISTRICT AVE,CHARLOTTESVILLE,VA,22901-2784,(434) 328-7023,38.067,-78.489,M-F 10:00am - 8:30pm,Sat. 9:30am - 6:00pm,Sun. 10:00am - 6:00pm
Charlotte Warehouse,500 TYVOLA RD,CHARLOTTE,NC,28217-3504,(704) 501-2403,35.162,-80.885,M-F 10:00am - 8:30pm,Sat. 9:30am - 6:00pm,Sun. 10:00am - 6:00pm
Charleston Warehouse,3050 ASHLEY TOWN CENTER DR,CHARLESTON,SC,29414-5664,(843) 460-2003,32.795,-80.037,M-F 10:00am - 8:30pm,Sat. 9:30am - 6:00pm,Sun. 10:00am - 6:00pm
Chantilly Warehouse,14390 CHANTILLY CROSSING LN,CHANTILLY,VA,20151-2117,(703) 885-5544,38.898,-77.445,M-F 10:00am - 8:30pm,Sat. 9:30am - 6:00pm,Sun. 10:00am - 6:00pm
Chandler Warehouse,595 S GALLERIA WAY,CHANDLER,AZ,85226-4932,(480) 375-2051,33.295,-111.899,M-F 10:00am - 8:30pm,Sat. 9:30am - 6:00pm,Sun. 10:00am - 6:00pm
Champaign Warehouse,2002 N. NEIL ST,CHAMPAIGN,IL,61820,(217) 600-6538,40.141,-88.245,M-F 10:00am - 8:30pm,Sat. 9:30am - 6:00pm,Sun. 10:00am - 6:00pm
Central Point Warehouse,3075 HAMRICK ROAD,CENTRAL POINT,OR,97502-2844,(541) 734-4227,42.374,-122.887,M-F 10:00am - 8:30pm,Sat. 9:30am - 7:00pm,Sun. 10:00am - 6:00pm
Centerville Warehouse,5300 CORNERSTONE NORTH BLVD,CENTERVILLE,OH,45440-2268,(937) 640-6000,39.661,-84.109,M-F 10:00am - 8:30pm,Sat. 9:30am - 6:00pm,Sun. 10:00am - 6:00pm
Centennial Warehouse,6555 N. DECATUR BLVD,LAS VEGAS,NV,89131-2796,(702) 415-2300,36.278,-115.209,M-F 10:00am - 8:30pm,Sat. 9:30am - 6:00pm,Sun. 10:00am - 6:00pm
Cedar Park TX Warehouse,4601 183A TOLL RD,CEDAR PARK,TX,78613-6310,(512) 690-9059,30.528,-97.817,M-F 10:00am - 8:30pm,Sat. 9:30am - 6:00pm,Sun. 10:00am - 6:00pm
Cave Creek Warehouse,2450 E BEARDSLEY RD,PHOENIX,AZ,85050-1300,(480) 375-2850,33.67,-112.029,Mon - Fri 10:00 AM - 08:30 PM,Sat. 09:30 AM - 06:00 PM,Sun. 10:00 AM - 06:00 PM
Castleton Warehouse,6110 E 86TH ST,INDIANAPOLIS,IN,46250-3507,(317) 558-1453,39.914,-86.062,M-F 10:00am - 8:30pm,Sat. 9:30am - 6:00pm,Sun. 10:00am - 6:00pm
Carson City Warehouse,700 OLD CLEAR CREEK RD,CARSON CITY,NV,89705-6853,(775) 881-2503,39.116,-119.776,Mon - Fri 10:00 AM - 08:30 PM,Sat. 10:00 AM - 06:00 PM,Sun. 09:30 AM - 06:00 PM
Carolina Warehouse,1185 AVE 65 INFANTERIA,SAN JUAN,PR,00924-3403,(787) 999-7230,18.402,-65.996,Mon - Fri 10:00 AM - 08:30 PM,Sat. 09:30 AM - 06:00 PM,Sun. 10:00 AM - 06:00 PM
Carmel Mountain Warehouse,12350 CARMEL MOUNTAIN RD,SAN DIEGO,CA,92128-4697,(858) 675-0379,32.988,-117.076,M-F 10:00am - 8:30pm,Sat. 9:30am - 6:00pm,Sun. 10:00am - 6:00pm
Carlsbad Warehouse,951 PALOMAR AIRPORT RD,CARLSBAD,CA,92011-1110,(760) 929-0963,33.122,-117.317,M-F 10:00am - 8:30pm,Sat. 9:30am - 6:00pm,Sun. 10:00am - 6:00pm
Cal Expo (Sacramento) Warehouse,1600 EXPO PKWY,SACRAMENTO,CA,95815-4228,(916) 830-1078,38.598,-121.452,M-F 9:00am - 8:30pm,Sat. 9:00am - 7:00pm,Sun. 9:00am - 7:00pm
Caguas Warehouse,"200 AVE RAFAEL CORDERO, PR#30",CAGUAS BAIROA WARD,PR,00725-4302,(787) 653-6930,18.247,-66.024,Mon - Fri 10:00 AM - 08:30 PM,Sat. 09:30 AM - 06:00 PM,Sun. 10:00 AM - 06:00 PM
Burnsville Warehouse,14050 BURNHAVEN DR,BURNSVILLE,MN,55337-4407,(952) 229-6449,44.749,-93.293,M-F 10:00am - 8:30pm,Sat. 9:30am - 6:00pm,Sun. 10:00am - 6:00pm
Burlington WA Warehouse,1725 S BURLINGTON BLVD,BURLINGTON,WA,98233-3223,(360) 757-5703,48.454,-122.338,M-F 10:00am - 8:30pm,Sat. 9:30am - 6:00pm,Sun. 10:00am - 6:00pm
Burbank Warehouse,1051 W BURBANK BLVD,BURBANK,CA,91506-1421,(818) 557-3783,34.184,-118.323,M-F 10:00am - 8:30pm,Sat. 9:30am - 6:00pm,Sun. 10:00am - 6:00pm
Burbank Business Center Warehouse,11428 SHERMAN WAY,NORTH HOLLYWOOD,CA,91605-5807,(818) 423-7082,34.201,-118.38,Mon - Fri 07:00 AM - 06:00 PM,Sat. 07:00 AM - 04:00 PM,Sun. Closed
Bunker Hill Warehouse,1150 BUNKER HILL RD,HOUSTON,TX,77055-6208,(713) 576-2053,29.788,-95.53,M-F 10:00am - 8:30pm,Sat. 9:30am - 6:00pm,Sun. 10:00am - 6:00pm
Bucks County Warehouse,100 VETERANS WAY,WARMINSTER,PA,18974-3533,(215) 347-1950,40.197,-75.081,M-F 10:00am - 8:30pm,Sat. 9:30am - 6:00pm,Sun. 10:00am - 6:00pm
Brooklyn Warehouse,976 3RD AVE,BROOKLYN,NY,11232-2400,(718) 965-7603,40.655,-74.007,M-F 9:00am - 8:30pm,Sat. 9:00am - 7:00pm,Sun. 9:00am - 6:00pm
Brookhaven Warehouse,500 BROOKHAVEN AVE NE,ATLANTA,GA,30319-3291,(404) 460-1915,33.872,-84.335,M-F 10:00am - 8:30pm,Sat. 9:30am - 6:00pm,Sun. 10:00am - 6:00pm
Brookfield Warehouse,200 FEDERAL RD,BROOKFIELD,CT,06804-2527,(203) 740-7623,41.443,-73.405,M-F 10:00am - 8:30pm,Sat. 9:30am - 6:00pm,Sun. 10:00am - 6:00pm
Bridgewater Warehouse,325 PROMENADE BLVD,BRIDGEWATER,NJ,08807-3457,(732) 584-1003,40.564,-74.556,M-F 10:00am - 8:30pm,Sat. 9:30am - 6:00pm,Sun. 10:00am - 6:00pm
Brick Township Warehouse,465 ROUTE 70,BRICK,NJ,08723-4049,(732) 262-6300,40.056,-74.155,M-F 10:00am - 8:30pm,Sat. 9:30am - 6:00pm,Sun. 10:00am - 6:00pm
Brentwood Warehouse,98 SEABOARD LN,BRENTWOOD,TN,37027-2930,(615) 493-1003,35.963,-86.819,M-F 10:00am - 8:30pm,Sat. 9:30am - 6:00pm,Sun. 10:00am - 6:00pm
Brandywine Warehouse,16006 CRAIN HWY,BRANDYWINE,MD,20613-8081,(301) 372-3200,38.669,-76.876,M-F 10:00am - 8:30pm,Sat. 9:30am - 6:00pm,Sun. 10:00am - 6:00pm
Brandon Warehouse,10921 CAUSEWAY BLVD,BRANDON,FL,33511-1997,(813) 952-0103,27.923,-82.332,M-F 10:00am - 8:30pm,Sat. 9:30am - 6:00pm,Sun. 10:00am - 6:00pm
Bradenton Warehouse,805 LIGHTHOUSE DRIVE,BRADENTON,FL,34212,(941) 213-0747,27.496,-82.471,M-F 10:00am - 8:30pm,Sat. 9:30am - 6:00pm,Sun. 10:00am - 6:00pm
Bozeman Warehouse,2505 CATRON ST,BOZEMAN,MT,59718-7993,(406) 585-0383,45.713,-111.071,M-F 10:00am - 8:30pm,Sat. 9:30am - 6:00pm,Sun. 10:00am - 6:00pm
Bountiful Warehouse,573 W 100 N,WEST BOUNTIFUL,UT,84010-7018,(801) 299-3940,40.89,-111.893,M-F 10:00am - 8:30pm,Sat. 9:30am - 6:00pm,Sun. 10:00am - 6:00pm
Boston Heights Warehouse,6720 BASS PRO DR,BOSTON HEIGHTS,OH,44236-1198,(330) 341-7000,41.263,-81.513,M-F 10:00am - 8:30pm,Sat. 9:30am - 6:00pm,Sun. 10:00am - 6:00pm
Bonney Lake Warehouse,9801 204TH AVE E,BONNEY LAKE,WA,98391-6559,(253) 750-8120,47.166,-122.158,Mon - Fri 10:00 AM - 08:30 PM,Sat. 09:30 AM - 06:00 PM,Sun. 10:00 AM - 06:00 PM
Bolingbrook Warehouse,830 E BOUGHTON RD,BOLINGBROOK,IL,60440-2355,(630) 410-0702,41.726,-88.033,M-F 10:00am - 8:30pm,Sat. 9:30am - 6:00pm,Sun. 10:00am - 6:00pm
Boise Warehouse,2051 S COLE RD,BOISE,ID,83709-2815,(208) 321-8700,43.585,-116.274,M-F 10:00am - 8:30pm,Sat. 9:30am - 6:00pm,Sun. 10:00am - 6:00pm
Boca Raton Warehouse,17800 CONGRESS AVE,BOCA RATON,FL,33487-1200,(561) 981-5004,26.412,-80.102,M-F 10:00am - 8:30pm,Sat. 9:30am - 6:00pm,Sun. 10:00am - 6:00pm
Bloomingdale Warehouse,505 W ARMY TRAIL RD,BLOOMINGDALE,IL,60108-1391,(630) 351-3059,41.94,-88.13,M-F 10:00am - 8:30pm,Sat. 9:30am - 6:00pm,Sun. 10:00am - 6:00pm
Bloomfield Warehouse,2343 S TELEGRAPH RD,BLOOMFIELD,MI,48302-0254,(248) 836-1603,42.605,-83.294,M-F 10:00am - 8:30pm,Sat. 9:30am - 6:00pm,Sun. 10:00am - 6:00pm
Bismarck Warehouse,1325 57TH AVE NE,BISMARCK,ND,58503-6581,(701) 415-7003,46.865,-100.771,M-F 10:00am - 8:30pm,Sat. 9:30am - 6:00pm,Sun. 10:00am - 6:00pm
Billings Warehouse,2290 KING AVE W,BILLINGS,MT,59102-7415,(406) 652-8765,45.755,-108.569,M-F 10:00am - 8:30pm,Sat. 9:30am - 6:00pm,Sun. 10:00am - 6:00pm
Bend Warehouse,2500 NE HIGHWAY 20,BEND,OR,97701-6277,(541) 385-9640,44.055,-121.27,M-F 10:00am - 8:30pm,Sat. 9:30am - 7:00pm,Sun. 10:00am - 6:00pm
Beltsville Warehouse,10925 BALTIMORE AVE,BELTSVILLE,MD,20705-2117,(301) 902-2640,39.033,-76.91,M-F 10:00am - 8:30pm,Sat. 9:30am - 6:00pm,Sun. 10:00am - 6:00pm
Bellingham Warehouse,4125 ARCTIC AVE,BELLINGHAM,WA,98226-9325,(360) 671-6947,48.791,-122.515,M-F 10:00am - 8:30pm,Sat. 9:30am - 6:00pm,Sun. 10:00am - 6:00pm
Bellevue (Green Bay) Warehouse,2355 COSTCO WAY,BELLEVUE,WI,54311-9206,(920) 469-5700,44.458,-87.989,M-F 10:00am - 8:30pm,Sat. 9:30am - 6:00pm,Sun. 10:00am - 6:00pm
Bedford Park Business Center Warehouse,7300 S CICERO AVE,CHICAGO,IL,60629-5817,(708) 552-9010,41.76,-87.742,Mon - Fri 07:00 AM - 06:00 PM,Sat. 07:00 AM - 04:00 PM,Sun. Closed
Bayonne Warehouse,21 GOLDSBOROUGH DR,BAYONNE,NJ,7002,(201) 354-2335,40.673,-74.105,M-F 10:00am - 8:30pm,Sat. 9:30am - 6:00pm,Sun. 10:00am - 6:00pm
Baxter Warehouse,13650 ELDER DR,BAXTER,MN,56425-8818,(218) 855-5740,46.349,-94.249,M-F 10:00am - 8:30pm,Sat. 9:30am - 6:00pm,Sun. 10:00am - 6:00pm
Baton Rouge Warehouse,10000 DAWNADELE AVE BLDG A,BATON ROUGE,LA,70809-2591,(225) 295-4600,30.42,-91.073,M-F 10:00am - 8:30pm,Sat. 9:30am - 6:00pm,Sun. 10:00am - 6:00pm
Bakersfield Warehouse,3800 ROSEDALE HWY,BAKERSFIELD,CA,93308-6235,(661) 852-2643,35.383,-119.047,M-F 10:00am - 8:30pm,Sat. 9:30am - 6:00pm,Sun. 10:00am - 6:00pm
Azusa Warehouse,1220 W FOOTHILL BLVD,AZUSA,CA,91702-2819,(626) 812-7911,34.134,-117.926,M-F 10:00am - 8:30pm,Sat. 9:30am - 6:00pm,Sun. 10:00am - 6:00pm
Avondale Warehouse,10000 W MCDOWELL RD,AVONDALE,AZ,85392-4803,(623) 907-5663,33.465,-112.275,M-F 10:00am - 8:30pm,Sat. 9:30am - 6:00pm,Sun. 10:00am - 6:00pm
Avon OH Warehouse,35804 DETROIT ROAD,AVON,OH,44011-1681,(440) 930-0103,41.458,-82.016,M-F 10:00am - 8:30pm,Sat. 9:30am - 6:00pm,Sun. 10:00am - 6:00pm
Avon MA Warehouse,120 STOCKWELL DR,AVON,MA,02322-1149,(508) 232-4000,42.135,-71.068,M-F 10:00am - 8:30pm,Sat. 9:30am - 6:00pm,Sun. 10:00am - 6:00pm
Avon IN Warehouse,8816 DR. CHARLES NELSON DRIVE,AVON,IN,46123,(317) 286-4742,39.765,-86.364,M-F 10:00am - 8:30pm,Sat. 9:30am - 6:00pm,Sun. 10:00am - 6:00pm
Austin Warehouse,10401 RESEARCH BLVD,AUSTIN,TX,78759-5712,(512) 634-2253,30.396,-97.746,Mon - Fri 10:00 AM - 08:30 PM,Sat. 09:30 AM - 06:00 PM,Sun. 10:00 AM - 06:00 PM
Aurora Warehouse,1471 S HAVANA ST,AURORA,CO,80012-4013,(303) 750-2116,39.69,-104.866,Mon - Fri 10:00 AM - 08:30 PM,Sat. 09:30 AM - 06:00 PM,Sun. 10:00 AM - 06:00 PM
Aurora Village Warehouse,1175 N 205TH ST,SHORELINE,WA,98133-3206,(206) 546-0480,47.776,-122.344,M-F 10:00am - 8:30pm,Sat. 9:30am - 6:00pm,Sun. 10:00am - 6:00pm
Augusta Warehouse,825 CABELA DR,AUGUSTA,GA,30909-8202,(706) 739-1700,33.524,-82.02,M-F 10:00am - 8:30pm,Sat. 9:30am - 6:00pm,Sun. 10:00am - 6:00pm
Auburn Hills Warehouse,400 BROWN RD,AUBURN HILLS,MI,48326-1305,(248) 648-0003,42.707,-83.296,M-F 10:00am - 8:30pm,Sat. 9:30am - 6:00pm,Sun. 10:00am - 6:00pm
Arvada Warehouse,5195 WADSWORTH BLVD,ARVADA,CO,80002-4617,(303) 463-3603,39.791,-105.081,M-F 10:00am - 8:30pm,Sat. 9:30am - 6:00pm,Sun. 10:00am - 6:00pm
Arundel Mills Warehouse,7077 ARUNDEL MILLS CIR,HANOVER,MD,21076-1387,(410) 379-3100,39.155,-76.73,M-F 10:00am - 8:30pm,Sat. 9:30am - 6:00pm,Sun. 10:00am - 6:00pm
Arlington Warehouse,600 W ARBROOK BLVD,ARLINGTON,TX,76014-3702,(817) 417-1603,32.685,-97.114,M-F 10:00am - 8:30pm,Sat. 9:30am - 6:00pm,Sun. 10:00am - 6:00pm
Apex Warehouse,1021 PINE PLAZA DR,APEX,NC,27523-6406,(919) 331-6027,35.747,-78.827,M-F 10:00am - 8:30pm,Sat. 9:30am - 6:00pm,Sun. 10:00am - 6:00pm
Antioch Warehouse,2201 VERNE ROBERTS CIR,ANTIOCH,CA,94509-7911,(925) 757-7130,38.01,-121.833,M-F 9:00am - 8:30pm,Sat. 9:00am - 7:00pm,Sun. 9:00am - 7:00pm
Anchorage Warehouse,330 W DIMOND BLVD,ANCHORAGE,AK,99515-1950,(907) 349-2335,61.145,-149.885,M-F 10:00am - 8:30pm,Sat. 9:30am - 7:00pm,Sun. 10:00am - 6:00pm
Altamonte Springs Warehouse,741 ORANGE AVE,ALTAMONTE SPRINGS,FL,32714-3031,(407) 786-7802,28.662,-81.415,M-F 10:00am - 8:30pm,Sat. 9:30am - 6:00pm,Sun. 10:00am - 6:00pm
Alpharetta Warehouse,2855 JORDAN CT,ALPHARETTA,GA,30004-3869,(678) 823-4950,34.091,-84.277,M-F 10:00am - 8:30pm,Sat. 9:30am - 6:00pm,Sun. 10:00am - 6:00pm
Aloha Warehouse,15901 SW JENKINS RD,ALOHA,OR,97006-5098,(503) 644-7615,45.508,-122.841,M-F 10:00am - 8:30pm,Sat. 9:30am - 7:00pm,Sun. 10:00am - 6:00pm
Almaden Warehouse,5301 ALMADEN EXPY,SAN JOSE,CA,95118-3603,(408) 723-0964,37.254,-121.876,M-F 9:00am - 8:30pm,Sat. 9:00am - 7:00pm,Sun. 9:00am - 7:00pm
Allentown Warehouse,791 N KROCKS RD,ALLENTOWN,PA,18106-9046,(484) 273-7056,40.567,-75.558,M-F 10:00am - 8:30pm,Sat. 9:30am - 6:00pm,Sun. 10:00am - 6:00pm
Alhambra Warehouse,2207 W COMMONWEALTH AVE,ALHAMBRA,CA,91803-1302,(626) 289-7164,34.088,-118.148,M-F 10:00am - 8:30pm,Sat. 9:30am - 6:00pm,Sun. 10:00am - 6:00pm
Albuquerque Warehouse,1420 N RENAISSANCE BLVD NE,ALBUQUERQUE,NM,87107-7008,(505) 345-9411,35.137,-106.616,M-F 10:00am - 8:30pm,Sat. 9:30am - 6:00pm,Sun. 10:00am - 6:00pm
Albany Warehouse,3130 KILLDEER AVE SE,ALBANY,OR,97322-5359,(541) 918-7043,44.639,-123.065,M-F 10:00am - 8:30pm,Sat. 9:30am - 7:00pm,Sun. 10:00am - 6:00pm
